{
  "type": "FeatureCollection",
  "crs": {
    "type": "name",
    "properties": {
      "name": "urn:ogc:def:crs:OGC:1.3:CRS84"
    }
  },
  "features": [
    {
      "type": "Feature",
      "properties": {
        "fid": 1,
        "id": 31,
        "timestamp_start": "2025-05-27T15:00:00+00:00",
        "timestamp_end": "2025-05-27T16:00:00+00:00",
        "title": "Verkehrszählung Heigerleinstraße",
        "description": "Die Radlobby Ottakring hat eine Verkehrszählung in der \"fahrradfreundlichen Straße\" Heigerleinstraße durchgeführt. Diese ist Teil der Radverbindung vom 18. in den 14. Bezirk entlang der Vorortelinie und sollte \"besonders hohe Qualität für den Radverkehr bieten.\" Tatsächlich ist sie ein Schleichweg für Autos, die hier von der Ottakringer Straße bis zur Hernalser Hauptstraße beinahe ohne Ampeln fahren können. Durch die hohe Anzahl an Autos auf der Radverbindung kommt es immer wieder zu gefährlichen Situationen! Diese Gefahrenstelle war auch eine Station bei unserer letzten Befahrung mit Vertretern des Bezirks. ",
        "weblink": "https://www.radlobby.at/wien/ottakring/2025-05/verkehrszaehlung-heigerleinstrasse",
        "host": "radlobby",
        "category": "initiative",
        "reccuring": "one_time"
      },
      "geometry": {
        "type": "Point",
        "coordinates": [
          16.332565993914482,
          45.14032296836414
        ]
      }
    },
    {
      "type": "Feature",
      "properties": {
        "fid": 2,
        "id": 32,
        "timestamp_start": "2025-05-26T06:00:00+00:00",
        "timestamp_end": "2025-05-26T18:00:00+00:00",
        "title": "Sicherer Radweg am Neubaugürtel kommt",
        "description": "Der Gürtel – eine der wichtigsten Hauptradrouten Wiens – bekommt an einem wichtigen Abschnitt, zwischen Mariahilfer Straße und Stollgasse, endlich einen sicheren Radweg! Damit wird eine wichtige Forderung der Radlobby erfüllt, für die wir und viele Radfahrende seit Jahren kämpfen.",
        "weblink": "https://www.radlobby.at/wien/2025-05/radlobby-erfolg-sicherer-radweg-am-neubauguertel-kommt",
        "host": "radlobby",
        "category": "initiative",
        "reccuring": "one_time"
      },
      "geometry": {
        "type": "Point",
        "coordinates": [
          16.33256599349278,
          45.14032296826721
        ]
      }
    },
    {
      "type": "Feature",
      "properties": {
        "fid": 3,
        "id": 33,
        "timestamp_start": "2025-05-01T07:00:00+00:00",
        "timestamp_end": "2025-05-01T10:00:00+00:00",
        "title": "Sichere Mobilität & lebenswerter öffentlicher Raum",
        "description": "Sichere und bewegungsaktive Mobilität für alle auf der Wieden – wie gelingt das? Und wie teilen wir den öffentlichen Raum gerecht unter den verschiedenen Nutzer:innengruppen auf? Die Projektgruppe „Raum fair teilen“ setzt auf konkrete Maßnahmen, um die Verkehrssicherheit zu verbessern und einen Beitrag zur Verkehrswende sowie zu einem lebenswerten Stadtraum zu leisten.",
        "weblink": "https://la21.wien/projekt/sichere-mobilitaet-lebenswerter-oeffentlicher-raum/",
        "host": "Raum Fair Teilen",
        "category": "initiative",
        "reccuring": "one_time"
      },
      "geometry": {
        "type": "Point",
        "coordinates": [
          16.332565993498733,
          45.14032296828451
        ]
      }
    },
    {
      "type": "Feature",
      "properties": {
        "fid": 4,
        "id": 35,
        "timestamp_start": "2025-05-16T15:00:00+00:00",
        "timestamp_end": "2025-05-16T18:00:00+00:00",
        "title": "Critical Spring Mass – Reclaim the streets!",
        "description": "Am 16. Mai rollt die Critical Mass Vienna wie jeden Monat für klimafreundliche Verkehrspolitik in Wien! Und wir werden immer mehr! Über Tausend Radler*innen haben letzten Mai #MehrPlatzFürsRad gefordert. Wieviele werden wir diesmal?",
        "weblink": "https://www.criticalmass.at/category/wien/",
        "host": "Critical Mass in Austria",
        "category": "protest",
        "reccuring": "one_time"
      },
      "geometry": {
        "type": "Point",
        "coordinates": [
          16.332565993744073,
          45.140322967891294
        ]
      }
    },
    {
      "type": "Feature",
      "properties": {
        "fid": 5,
        "id": 36,
        "timestamp_start": "2025-04-18T15:00:00.605000+00:00",
        "timestamp_end": "2025-04-18T18:00:00+00:00",
        "title": "NULLCritical Easter Mass",
        "description": "Sattelt eure Osterhasen! Die Critical Mass Wien reitet vorösterlich lautstark auf Straßen, die sonst den Autos gehören, und zelebriert das beste Verkehrsmittel der Stadt. Wir nehmen uns den Platz auf der Straße, der dem Radverkehr zusteht: #MehrPlatzFürsRad ",
        "weblink": "https://www.criticalmass.at/category/wien/",
        "host": "Critical Mass in Austria",
        "category": "protest",
        "reccuring": "one_time"
      },
      "geometry": {
        "type": "Point",
        "coordinates": [
          16.33256599342824,
          45.14032296812335
        ]
      }
    },
    {
      "type": "Feature",
      "properties": {
        "fid": 6,
        "id": 37,
        "timestamp_start": "2025-05-10T08:00:00+00:00",
        "timestamp_end": "2025-05-10T10:00:00+00:00",
        "title": "Kindical Mass",
        "description": "Damit sich Kinder sicher und selbstständig mit dem Fahrrad bewegen können, benötigt es bessere und sicherere Radwege. Denn Radfahren soll keinen Dauerstress für Eltern und Kinder bedeuten. Um dafür ein Zeichen zu setzen, erobern wir mit viel Freude und Musik die Straßen. Sei dabei und bring die Dinge ins Rollen!",
        "weblink": "https://www.kidicalmass.at/",
        "host": "Kindical Mass",
        "category": "protest",
        "reccuring": "one_time"
      },
      "geometry": {
        "type": "Point",
        "coordinates": [
          16.332565993632112,
          45.14032296835416
        ]
      }
    },
    {
      "type": "Feature",
      "properties": {
        "fid": 7,
        "id": 38,
        "timestamp_start": "2025-06-01T07:00:00+00:00",
        "timestamp_end": "2025-06-01T10:00:00+00:00",
        "title": "Kirchberggasse für alle!",
        "description": "Wir setzen uns für Mitsprache und Partizipation ein: wir wollen unsere Gasse gemeinsam mit Leben füllen!\n\nExplodierende Mieten und AirBnB vertreiben die langjährigen Bewohner:innen auf dem Spittelberg: wir wollen unsere Nachbar:innen nicht verlieren!",
        "weblink": "https://kirchberggasse.at/",
        "host": "Initiative Kirchberggasse",
        "category": "initiative",
        "reccuring": "weekly"
      },
      "geometry": {
        "type": "Point",
        "coordinates": [
          16.332565994054395,
          45.14032296827726
        ]
      }
    },
    {
      "type": "Feature",
      "properties": {
        "fid": 8,
        "id": 34,
        "timestamp_start": "2025-06-08T07:00:00+00:00",
        "timestamp_end": "2025-06-08T10:00:00+00:00",
        "title": "Kirchberggasse für alle!",
        "description": "Wir setzen uns für Mitsprache und Partizipation ein: wir wollen unsere Gasse gemeinsam mit Leben füllen!\n\nExplodierende Mieten und AirBnB vertreiben die langjährigen Bewohner:innen auf dem Spittelberg: wir wollen unsere Nachbar:innen nicht verlieren!",
        "weblink": "https://kirchberggasse.at/",
        "host": "Initiative Kirchberggasse",
        "category": "initiative",
        "reccuring": "one_time"
      },
      "geometry": {
        "type": "Point",
        "coordinates": [
          16.332565993570896,
          45.14032296832728
        ]
      }
    },
    {
      "type": "Feature",
      "properties": {
        "fid": 9,
        "id": 39,
        "timestamp_start": "2025-06-15T07:00:00+00:00",
        "timestamp_end": "2025-06-15T10:00:00+00:00",
        "title": "Kirchberggasse für alle!",
        "description": "Wir setzen uns für Mitsprache und Partizipation ein: wir wollen unsere Gasse gemeinsam mit Leben füllen!\n\nExplodierende Mieten und AirBnB vertreiben die langjährigen Bewohner:innen auf dem Spittelberg: wir wollen unsere Nachbar:innen nicht verlieren!",
        "weblink": "https://kirchberggasse.at/",
        "host": "Initiative Kirchberggasse",
        "category": "initiative",
        "reccuring": "weekly"
      },
      "geometry": {
        "type": "Point",
        "coordinates": [
          16.332565993506122,
          45.14032296798639
        ]
      }
    },
    {
      "type": "Feature",
      "properties": {
        "fid": 10,
        "id": 310,
        "timestamp_start": "2025-06-22T07:00:00+00:00",
        "timestamp_end": "2025-06-22T10:00:00+00:00",
        "title": "Kirchberggasse für alle!",
        "description": "Wir setzen uns für Mitsprache und Partizipation ein: wir wollen unsere Gasse gemeinsam mit Leben füllen!\n\nExplodierende Mieten und AirBnB vertreiben die langjährigen Bewohner:innen auf dem Spittelberg: wir wollen unsere Nachbar:innen nicht verlieren!",
        "weblink": "https://kirchberggasse.at/",
        "host": "Initiative Kirchberggasse",
        "category": "initiative",
        "reccuring": "weekly"
      },
      "geometry": {
        "type": "Point",
        "coordinates": [
          16.332565994117925,
          45.14032296810415
        ]
      }
    },
    {
      "type": "Feature",
      "properties": {
        "fid": 11,
        "id": 311,
        "timestamp_start": "2025-06-29T07:00:00+00:00",
        "timestamp_end": "2025-06-29T10:00:00+00:00",
        "title": "Kirchberggasse für alle!",
        "description": "Wir setzen uns für Mitsprache und Partizipation ein: wir wollen unsere Gasse gemeinsam mit Leben füllen!\n\nExplodierende Mieten und AirBnB vertreiben die langjährigen Bewohner:innen auf dem Spittelberg: wir wollen unsere Nachbar:innen nicht verlieren!",
        "weblink": "https://kirchberggasse.at/",
        "host": "Initiative Kirchberggasse",
        "category": "initiative",
        "reccuring": "weekly"
      },
      "geometry": {
        "type": "Point",
        "coordinates": [
          16.33256599364781,
          45.140322967909725
        ]
      }
    },
    {
      "type": "Feature",
      "properties": {
        "fid": 12,
        "id": 312,
        "timestamp_start": "2025-07-06T07:00:00+00:00",
        "timestamp_end": "2025-07-06T10:00:00+00:00",
        "title": "Kirchberggasse für alle!",
        "description": "Wir setzen uns für Mitsprache und Partizipation ein: wir wollen unsere Gasse gemeinsam mit Leben füllen!\n\nExplodierende Mieten und AirBnB vertreiben die langjährigen Bewohner:innen auf dem Spittelberg: wir wollen unsere Nachbar:innen nicht verlieren!",
        "weblink": "https://kirchberggasse.at/",
        "host": "Initiative Kirchberggasse",
        "category": "initiative",
        "reccuring": "weekly"
      },
      "geometry": {
        "type": "Point",
        "coordinates": [
          16.332565993471142,
          45.14032296824206
        ]
      }
    },
    {
      "type": "Feature",
      "properties": {
        "fid": 13,
        "id": 313,
        "timestamp_start": "2025-07-13T07:00:00+00:00",
        "timestamp_end": "2025-07-13T10:00:00+00:00",
        "title": "Kirchberggasse für alle!",
        "description": "Wir setzen uns für Mitsprache und Partizipation ein: wir wollen unsere Gasse gemeinsam mit Leben füllen!\n\nExplodierende Mieten und AirBnB vertreiben die langjährigen Bewohner:innen auf dem Spittelberg: wir wollen unsere Nachbar:innen nicht verlieren!",
        "weblink": "https://kirchberggasse.at/",
        "host": "Initiative Kirchberggasse",
        "category": "initiative",
        "reccuring": "weekly"
      },
      "geometry": {
        "type": "Point",
        "coordinates": [
          16.3325659940997,
          45.14032296821734
        ]
      }
    },
    {
      "type": "Feature",
      "properties": {
        "fid": 14,
        "id": 314,
        "timestamp_start": "2025-07-20T07:00:00+00:00",
        "timestamp_end": "2025-07-20T10:00:00+00:00",
        "title": "Kirchberggasse für alle!",
        "description": "Wir setzen uns für Mitsprache und Partizipation ein: wir wollen unsere Gasse gemeinsam mit Leben füllen!\n\nExplodierende Mieten und AirBnB vertreiben die langjährigen Bewohner:innen auf dem Spittelberg: wir wollen unsere Nachbar:innen nicht verlieren!",
        "weblink": "https://kirchberggasse.at/",
        "host": "Initiative Kirchberggasse",
        "category": "initiative",
        "reccuring": "weekly"
      },
      "geometry": {
        "type": "Point",
        "coordinates": [
          16.332565993456427,
          45.140322968050185
        ]
      }
    },
    {
      "type": "Feature",
      "properties": {
        "fid": 15,
        "id": 315,
        "timestamp_start": "2025-07-27T07:00:00+00:00",
        "timestamp_end": "2025-07-27T10:00:00+00:00",
        "title": "Kirchberggasse für alle!",
        "description": "Wir setzen uns für Mitsprache und Partizipation ein: wir wollen unsere Gasse gemeinsam mit Leben füllen!\n\nExplodierende Mieten und AirBnB vertreiben die langjährigen Bewohner:innen auf dem Spittelberg: wir wollen unsere Nachbar:innen nicht verlieren!",
        "weblink": "https://kirchberggasse.at/",
        "host": "Initiative Kirchberggasse",
        "category": "initiative",
        "reccuring": "weekly"
      },
      "geometry": {
        "type": "Point",
        "coordinates": [
          16.332565993439374,
          45.140322968096676
        ]
      }
    },
    {
      "type": "Feature",
      "properties": {
        "fid": 16,
        "id": 316,
        "timestamp_start": "2025-08-03T07:00:00+00:00",
        "timestamp_end": "2025-08-03T10:00:00+00:00",
        "title": "Kirchberggasse für alle!",
        "description": "Wir setzen uns für Mitsprache und Partizipation ein: wir wollen unsere Gasse gemeinsam mit Leben füllen!\n\nExplodierende Mieten und AirBnB vertreiben die langjährigen Bewohner:innen auf dem Spittelberg: wir wollen unsere Nachbar:innen nicht verlieren!",
        "weblink": "https://kirchberggasse.at/",
        "host": "Initiative Kirchberggasse",
        "category": "initiative",
        "reccuring": "weekly"
      },
      "geometry": {
        "type": "Point",
        "coordinates": [
          16.332565993712794,
          45.14032296837212
        ]
      }
    },
    {
      "type": "Feature",
      "properties": {
        "fid": 17,
        "id": 317,
        "timestamp_start": "2025-08-10T07:00:00+00:00",
        "timestamp_end": "2025-08-10T10:00:00+00:00",
        "title": "Kirchberggasse für alle!",
        "description": "Wir setzen uns für Mitsprache und Partizipation ein: wir wollen unsere Gasse gemeinsam mit Leben füllen!\n\nExplodierende Mieten und AirBnB vertreiben die langjährigen Bewohner:innen auf dem Spittelberg: wir wollen unsere Nachbar:innen nicht verlieren!",
        "weblink": "https://kirchberggasse.at/",
        "host": "Initiative Kirchberggasse",
        "category": "initiative",
        "reccuring": "weekly"
      },
      "geometry": {
        "type": "Point",
        "coordinates": [
          16.332565994105906,
          45.140322968063955
        ]
      }
    },
    {
      "type": "Feature",
      "properties": {
        "fid": 18,
        "id": 318,
        "timestamp_start": "2025-08-17T07:00:00+00:00",
        "timestamp_end": "2025-08-17T10:00:00+00:00",
        "title": "Kirchberggasse für alle!",
        "description": "Wir setzen uns für Mitsprache und Partizipation ein: wir wollen unsere Gasse gemeinsam mit Leben füllen!\n\nExplodierende Mieten und AirBnB vertreiben die langjährigen Bewohner:innen auf dem Spittelberg: wir wollen unsere Nachbar:innen nicht verlieren!",
        "weblink": "https://kirchberggasse.at/",
        "host": "Initiative Kirchberggasse",
        "category": "initiative",
        "reccuring": "weekly"
      },
      "geometry": {
        "type": "Point",
        "coordinates": [
          16.332565993435285,
          45.14032296813578
        ]
      }
    },
    {
      "type": "Feature",
      "properties": {
        "fid": 19,
        "id": 319,
        "timestamp_start": "2025-08-24T07:00:00+00:00",
        "timestamp_end": "2025-08-24T10:00:00+00:00",
        "title": "Kirchberggasse für alle!",
        "description": "Wir setzen uns für Mitsprache und Partizipation ein: wir wollen unsere Gasse gemeinsam mit Leben füllen!\n\nExplodierende Mieten und AirBnB vertreiben die langjährigen Bewohner:innen auf dem Spittelberg: wir wollen unsere Nachbar:innen nicht verlieren!",
        "weblink": "https://kirchberggasse.at/",
        "host": "Initiative Kirchberggasse",
        "category": "initiative",
        "reccuring": "weekly"
      },
      "geometry": {
        "type": "Point",
        "coordinates": [
          16.33256599358003,
          45.14032296833201
        ]
      }
    },
    {
      "type": "Feature",
      "properties": {
        "fid": 20,
        "id": 320,
        "timestamp_start": "2025-08-31T07:00:00+00:00",
        "timestamp_end": "2025-08-24T10:00:00+00:00",
        "title": "Kirchberggasse für alle!",
        "description": "Wir setzen uns für Mitsprache und Partizipation ein: wir wollen unsere Gasse gemeinsam mit Leben füllen!\n\nExplodierende Mieten und AirBnB vertreiben die langjährigen Bewohner:innen auf dem Spittelberg: wir wollen unsere Nachbar:innen nicht verlieren!",
        "weblink": "https://kirchberggasse.at/",
        "host": "Initiative Kirchberggasse",
        "category": "initiative",
        "reccuring": "weekly"
      },
      "geometry": {
        "type": "Point",
        "coordinates": [
          16.332565993980893,
          45.14032296832941
        ]
      }
    },
    {
      "type": "Feature",
      "properties": {
        "fid": 21,
        "id": 321,
        "timestamp_start": "2025-05-24T12:00:00+00:00",
        "timestamp_end": "2025-05-24T14:00:00+00:00",
        "title": "Visionary Walk - Westbahnpark.LIVE",
        "description": "Vision? Nein, Realität! Wir zeigen Euch den Westbahnpark live und voller Leben!\n\nKommt mit uns in den Park, ihr werdet staunen!",
        "weblink": "https://www.westbahnpark.live/kalender",
        "host": "WESTBAHNPARK.AHORA",
        "category": "initiative",
        "reccuring": "one_time"
      },
      "geometry": {
        "type": "Point",
        "coordinates": [
          16.332565994104886,
          45.14032296821186
        ]
      }
    },
    {
      "type": "Feature",
      "properties": {
        "fid": 22,
        "id": 322,
        "timestamp_start": "2025-04-07T16:00:00+00:00",
        "timestamp_end": "2025-04-07T18:00:00+00:00",
        "title": "Westbahnpark-Monwalk",
        "description": "Ab 2025 verlagern wir unsere Treffen ganz einfach ins Freie und gehen jeden 1. Montag im Monat gemeinsam in den Westbahnpark zum Westbahnpark-Monwalk!",
        "weblink": "https://www.westbahnpark.live/kalender-kommende-events/westbahnpark-monwalk-5",
        "host": "WESTBAHNPARK.AHORA",
        "category": "initiative",
        "reccuring": "one_time"
      },
      "geometry": {
        "type": "Point",
        "coordinates": [
          16.332565993488288,
          45.14032296800809
        ]
      }
    },
    {
      "type": "Feature",
      "properties": {
        "fid": 23,
        "id": 323,
        "timestamp_start": "2025-04-04T17:00:00+00:00",
        "timestamp_end": "2025-04-04T19:00:00+00:00",
        "title": "Future Bike Ride",
        "description": "Raddemo für eine gemeinsame gute Zukunft!\n‍Ende April wird in Wien gewählt. Die Demokratie lebt von der Beteiligung aller. Darum wollen wir den Menschen gemeinsam mit anderen Initiativen und Organisationen mit positiven Zukunftsvisionen viele Gründe geben, um wählen zu gehen, und der Politik zeigen, welche Themen den Menschen wichtig sind.",
        "weblink": "https://www.westbahnpark.live/kalender-kommende-events/future-bike-ride",
        "host": "WESTBAHNPARK.AHORA",
        "category": "initiative",
        "reccuring": "one_time"
      },
      "geometry": {
        "type": "Point",
        "coordinates": [
          16.33256599411882,
          45.1403229681866
        ]
      }
    },
    {
      "type": "Feature",
      "properties": {
        "fid": 24,
        "id": 324,
        "timestamp_start": "2025-06-05T14:00:00+00:00",
        "timestamp_end": "2025-06-05T16:00:00+00:00",
        "title": "Kinderbücher Tausch im Paklet",
        "description": "Hast du Kinderbücher, die vielleicht nicht mehr liest oder manche vielleicht doppelt? Suchst du etwas neues zum Lesen? Dann komm und schau vorbei.",
        "weblink": "https://matznerviertel.at/kinderbuecher-tausch-im-paklet-do-5-juni/",
        "host": "Matznerviertel habitable",
        "category": "initiative",
        "reccuring": "one_time"
      },
      "geometry": {
        "type": "Point",
        "coordinates": [
          16.33256599412949,
          45.140322968141035
        ]
      }
    },
    {
      "type": "Feature",
      "properties": {
        "fid": 25,
        "id": 325,
        "timestamp_start": "2025-06-26T13:00:00+00:00",
        "timestamp_end": "2025-06-26T17:00:00+00:00",
        "title": "Sommerfest „Mit heißen Rhythmen in die Ferien“",
        "description": "Nach einem langen Schuljahr haben sich Kinder und Erwachsene Erholung verdient. Die ersehnten Ferien beginnen mit einem Sommerfest am 26. Juni am Matzner-Markt.\n\nAb 15.00 Uhr startet auf der Wohnstraße Goldschlagstraße das Festprogramm. Kinder können sich beim Dosenschießen messen, die Wohnstraße mit Straßenkreiden bunt bemalen oder sich schminken lassen.\n\nAb 16.00 Uhr bieten dazu noch kiddy&Co Spiel und Spaß. Ebenso ab 16.00 Uhr kann man Kräuterbutter rühren und auch gleich verkosten. Die Kräuter dafür werden frisch im Matznergarten gepflückt. Eine Live-Salsaband Sabor Tumbao aus Lateinamerika sorgt mit ihren heißen Rhythmen für das passende Sommerfeeling. Und damit auch wirklich jeder und jede mittanzen kann, gibt es von 16.30-17.30 Uhr eine öffentliche Tanzstunde mit Ery Pedroso. Die gastronomische Versorgung kommt von den Standlern am Matzner-Markt und Kantine 14 im Gastgarten!",
        "weblink": "https://matznerviertel.at/sommerfest-mit-heissen-rhythmen-in-die-ferien/",
        "host": "Matznerviertel habitable",
        "category": "initiative",
        "reccuring": "one_time"
      },
      "geometry": {
        "type": "Point",
        "coordinates": [
          16.332565993491908,
          45.14032296826203
        ]
      }
    },
    {
      "type": "Feature",
      "properties": {
        "fid": 26,
        "id": 326,
        "timestamp_start": "2025-05-12T17:00:00+00:00",
        "timestamp_end": "2025-05-12T19:00:00+00:00",
        "title": "Philosophisches Café im Matznerviertel: Demokratie gemeinsam denken",
        "description": "Philosophieren nach Marc Sautet: Ein demokratisches Gespräch\nAls Sautet 1992 das erste Philosophische Café im Pariser Café des Phares ins Leben rief, hatte er ein klares Ziel: Er wollte die Philosophie aus der Universität herausholen und dorthin bringen, wo Menschen zusammenkommen – in Cafés, auf Marktplätze, mitten in den Alltag. Sein Konzept war radikal demokratisch:\n\nJede:r kann mitreden. Philosophie ist kein Elitenprojekt, sondern ein gemeinsames Denken, das alle betrifft.\nDie Themen werden von den Teilnehmer:innen bestimmt. Keine vorgegebenen Vorträge, keine fertigen Antworten – stattdessen eine offene Diskussion über die Fragen, die die Menschen tatsächlich bewegen.\nDie Moderation sorgt für Tiefe. Eine zentrale Rolle spielte für Sautet die Kunst des Fragens: Nicht um zu belehren, sondern um das Denken anzuregen, zu hinterfragen und neue Zusammenhänge zu entdecken.",
        "weblink": "https://matznerviertel.at/die-kant_ine-denkt-nach-das-philosophische-cafe/",
        "host": "Matznerviertel habitable",
        "category": "initiative",
        "reccuring": "one_time"
      },
      "geometry": {
        "type": "Point",
        "coordinates": [
          16.332565993988116,
          45.14032296794155
        ]
      }
    },
    {
      "type": "Feature",
      "properties": {
        "fid": 27,
        "id": 327,
        "timestamp_start": "2025-06-05T15:00:00+00:00",
        "timestamp_end": "2025-06-05T17:00:00+00:00",
        "title": "Grätzl-Treff am Matzner-Markt",
        "description": "Unsere Grätzl-Treffs finden, solange es den Matzner-Markt gibt, jeden Donnerstag im Monat von 17 bis 19 Uhr am Infostand des Lebenswerten Matznerviertels in der Wohnstraße Goldschlagstraße statt.\n\nAnliegen und Fragen zur Nachbarschaft im Matznerviertel können wir dann gerne von Angesicht zu Angesicht besprechen. Wir freuen uns auf Ihren Besuch!",
        "weblink": "https://matznerviertel.at/graetzl-treff-am-matzner-markt/",
        "host": "Matznerviertel habitable",
        "category": "initiative",
        "reccuring": "weekly"
      },
      "geometry": {
        "type": "Point",
        "coordinates": [
          16.332565994026375,
          45.140322968311494
        ]
      }
    },
    {
      "type": "Feature",
      "properties": {
        "fid": 28,
        "id": 328,
        "timestamp_start": "2025-06-12T15:00:00+00:00",
        "timestamp_end": "2025-06-12T17:00:00+00:00",
        "title": "Grätzl-Treff am Matzner-Markt",
        "description": "Unsere Grätzl-Treffs finden, solange es den Matzner-Markt gibt, jeden Donnerstag im Monat von 17 bis 19 Uhr am Infostand des Lebenswerten Matznerviertels in der Wohnstraße Goldschlagstraße statt.\n\nAnliegen und Fragen zur Nachbarschaft im Matznerviertel können wir dann gerne von Angesicht zu Angesicht besprechen. Wir freuen uns auf Ihren Besuch!",
        "weblink": "https://matznerviertel.at/graetzl-treff-am-matzner-markt/",
        "host": "Matznerviertel habitable",
        "category": "initiative",
        "reccuring": "weekly"
      },
      "geometry": {
        "type": "Point",
        "coordinates": [
          16.332565993921378,
          45.140322968361076
        ]
      }
    },
    {
      "type": "Feature",
      "properties": {
        "fid": 29,
        "id": 329,
        "timestamp_start": "2025-06-19T15:00:00+00:00",
        "timestamp_end": "2025-06-19T17:00:00+00:00",
        "title": "Grätzl-Treff am Matzner-Markt",
        "description": "Unsere Grätzl-Treffs finden, solange es den Matzner-Markt gibt, jeden Donnerstag im Monat von 17 bis 19 Uhr am Infostand des Lebenswerten Matznerviertels in der Wohnstraße Goldschlagstraße statt.\n\nAnliegen und Fragen zur Nachbarschaft im Matznerviertel können wir dann gerne von Angesicht zu Angesicht besprechen. Wir freuen uns auf Ihren Besuch!",
        "weblink": "https://matznerviertel.at/graetzl-treff-am-matzner-markt/",
        "host": "Matznerviertel habitable",
        "category": "initiative",
        "reccuring": "weekly"
      },
      "geometry": {
        "type": "Point",
        "coordinates": [
          16.332565993684824,
          45.14032296790657
        ]
      }
    },
    {
      "type": "Feature",
      "properties": {
        "fid": 30,
        "id": 330,
        "timestamp_start": "2025-06-26T15:00:00+00:00",
        "timestamp_end": "2025-06-26T17:00:00+00:00",
        "title": "Grätzl-Treff am Matzner-Markt",
        "description": "Unsere Grätzl-Treffs finden, solange es den Matzner-Markt gibt, jeden Donnerstag im Monat von 17 bis 19 Uhr am Infostand des Lebenswerten Matznerviertels in der Wohnstraße Goldschlagstraße statt.\n\nAnliegen und Fragen zur Nachbarschaft im Matznerviertel können wir dann gerne von Angesicht zu Angesicht besprechen. Wir freuen uns auf Ihren Besuch!",
        "weblink": "https://matznerviertel.at/graetzl-treff-am-matzner-markt/",
        "host": "Matznerviertel habitable",
        "category": "initiative",
        "reccuring": "weekly"
      },
      "geometry": {
        "type": "Point",
        "coordinates": [
          16.332565994059113,
          45.140322967990734
        ]
      }
    },
    {
      "type": "Feature",
      "properties": {
        "fid": 31,
        "id": 331,
        "timestamp_start": "2025-07-03T15:00:00+00:00",
        "timestamp_end": "2025-07-03T17:00:00+00:00",
        "title": "Grätzl-Treff am Matzner-Markt",
        "description": "Unsere Grätzl-Treffs finden, solange es den Matzner-Markt gibt, jeden Donnerstag im Monat von 17 bis 19 Uhr am Infostand des Lebenswerten Matznerviertels in der Wohnstraße Goldschlagstraße statt.\n\nAnliegen und Fragen zur Nachbarschaft im Matznerviertel können wir dann gerne von Angesicht zu Angesicht besprechen. Wir freuen uns auf Ihren Besuch!",
        "weblink": "https://matznerviertel.at/graetzl-treff-am-matzner-markt/",
        "host": "Matznerviertel habitable",
        "category": "initiative",
        "reccuring": "weekly"
      },
      "geometry": {
        "type": "Point",
        "coordinates": [
          16.332565994026986,
          45.14032296831106
        ]
      }
    },
    {
      "type": "Feature",
      "properties": {
        "fid": 32,
        "id": 332,
        "timestamp_start": "2025-07-10T15:00:00+00:00",
        "timestamp_end": "2025-07-10T17:00:00+00:00",
        "title": "Grätzl-Treff am Matzner-Markt",
        "description": "Unsere Grätzl-Treffs finden, solange es den Matzner-Markt gibt, jeden Donnerstag im Monat von 17 bis 19 Uhr am Infostand des Lebenswerten Matznerviertels in der Wohnstraße Goldschlagstraße statt.\n\nAnliegen und Fragen zur Nachbarschaft im Matznerviertel können wir dann gerne von Angesicht zu Angesicht besprechen. Wir freuen uns auf Ihren Besuch!",
        "weblink": "https://matznerviertel.at/graetzl-treff-am-matzner-markt/",
        "host": "Matznerviertel habitable",
        "category": "initiative",
        "reccuring": "weekly"
      },
      "geometry": {
        "type": "Point",
        "coordinates": [
          16.332565994045087,
          45.14032296829748
        ]
      }
    },
    {
      "type": "Feature",
      "properties": {
        "fid": 33,
        "id": 333,
        "timestamp_start": "2025-07-17T15:00:00+00:00",
        "timestamp_end": "2025-07-17T17:00:00+00:00",
        "title": "Grätzl-Treff am Matzner-Markt",
        "description": "Unsere Grätzl-Treffs finden, solange es den Matzner-Markt gibt, jeden Donnerstag im Monat von 17 bis 19 Uhr am Infostand des Lebenswerten Matznerviertels in der Wohnstraße Goldschlagstraße statt.\n\nAnliegen und Fragen zur Nachbarschaft im Matznerviertel können wir dann gerne von Angesicht zu Angesicht besprechen. Wir freuen uns auf Ihren Besuch!",
        "weblink": "https://matznerviertel.at/graetzl-treff-am-matzner-markt/",
        "host": "Matznerviertel habitable",
        "category": "initiative",
        "reccuring": "weekly"
      },
      "geometry": {
        "type": "Point",
        "coordinates": [
          16.332565993774818,
          45.14032296838038
        ]
      }
    },
    {
      "type": "Feature",
      "properties": {
        "fid": 34,
        "id": 334,
        "timestamp_start": "2025-07-24T15:00:00+00:00",
        "timestamp_end": "2025-07-24T17:00:00+00:00",
        "title": "Grätzl-Treff am Matzner-Markt",
        "description": "Unsere Grätzl-Treffs finden, solange es den Matzner-Markt gibt, jeden Donnerstag im Monat von 17 bis 19 Uhr am Infostand des Lebenswerten Matznerviertels in der Wohnstraße Goldschlagstraße statt.\n\nAnliegen und Fragen zur Nachbarschaft im Matznerviertel können wir dann gerne von Angesicht zu Angesicht besprechen. Wir freuen uns auf Ihren Besuch!",
        "weblink": "https://matznerviertel.at/graetzl-treff-am-matzner-markt/",
        "host": "Matznerviertel habitable",
        "category": "initiative",
        "reccuring": "weekly"
      },
      "geometry": {
        "type": "Point",
        "coordinates": [
          16.3325659936971,
          45.14032296837205
        ]
      }
    },
    {
      "type": "Feature",
      "properties": {
        "fid": 35,
        "id": 335,
        "timestamp_start": "2025-07-31T15:00:00+00:00",
        "timestamp_end": "2025-07-31T17:00:00+00:00",
        "title": "Grätzl-Treff am Matzner-Markt",
        "description": "Unsere Grätzl-Treffs finden, solange es den Matzner-Markt gibt, jeden Donnerstag im Monat von 17 bis 19 Uhr am Infostand des Lebenswerten Matznerviertels in der Wohnstraße Goldschlagstraße statt.\n\nAnliegen und Fragen zur Nachbarschaft im Matznerviertel können wir dann gerne von Angesicht zu Angesicht besprechen. Wir freuen uns auf Ihren Besuch!",
        "weblink": "https://matznerviertel.at/graetzl-treff-am-matzner-markt/",
        "host": "Matznerviertel habitable",
        "category": "initiative",
        "reccuring": "weekly"
      },
      "geometry": {
        "type": "Point",
        "coordinates": [
          16.332565993853915,
          45.140322967900225
        ]
      }
    },
    {
      "type": "Feature",
      "properties": {
        "fid": 36,
        "id": 336,
        "timestamp_start": "2025-05-29T15:00:00+00:00",
        "timestamp_end": "2025-05-29T17:00:00+00:00",
        "title": "Grätzl-Treff am Matzner-Markt",
        "description": "Unsere Grätzl-Treffs finden, solange es den Matzner-Markt gibt, jeden Donnerstag im Monat von 17 bis 19 Uhr am Infostand des Lebenswerten Matznerviertels in der Wohnstraße Goldschlagstraße statt.\n\nAnliegen und Fragen zur Nachbarschaft im Matznerviertel können wir dann gerne von Angesicht zu Angesicht besprechen. Wir freuen uns auf Ihren Besuch!",
        "weblink": "https://matznerviertel.at/graetzl-treff-am-matzner-markt/",
        "host": "Matznerviertel habitable",
        "category": "initiative",
        "reccuring": "weekly"
      },
      "geometry": {
        "type": "Point",
        "coordinates": [
          16.332565993753565,
          45.14032296837938
        ]
      }
    },
    {
      "type": "Feature",
      "properties": {
        "fid": 37,
        "id": 337,
        "timestamp_start": "2025-05-22T15:00:00+00:00",
        "timestamp_end": "2025-05-22T17:00:00+00:00",
        "title": "Grätzl-Treff am Matzner-Markt",
        "description": "Unsere Grätzl-Treffs finden, solange es den Matzner-Markt gibt, jeden Donnerstag im Monat von 17 bis 19 Uhr am Infostand des Lebenswerten Matznerviertels in der Wohnstraße Goldschlagstraße statt.\n\nAnliegen und Fragen zur Nachbarschaft im Matznerviertel können wir dann gerne von Angesicht zu Angesicht besprechen. Wir freuen uns auf Ihren Besuch!",
        "weblink": "https://matznerviertel.at/graetzl-treff-am-matzner-markt/",
        "host": "Matznerviertel habitable",
        "category": "initiative",
        "reccuring": "weekly"
      },
      "geometry": {
        "type": "Point",
        "coordinates": [
          16.33256599395927,
          45.140322968347625
        ]
      }
    },
    {
      "type": "Feature",
      "properties": {
        "fid": 38,
        "id": 338,
        "timestamp_start": "2025-05-15T15:00:00+00:00",
        "timestamp_end": "2025-05-15T17:00:00+00:00",
        "title": "Grätzl-Treff am Matzner-Markt",
        "description": "Unsere Grätzl-Treffs finden, solange es den Matzner-Markt gibt, jeden Donnerstag im Monat von 17 bis 19 Uhr am Infostand des Lebenswerten Matznerviertels in der Wohnstraße Goldschlagstraße statt.\n\nAnliegen und Fragen zur Nachbarschaft im Matznerviertel können wir dann gerne von Angesicht zu Angesicht besprechen. Wir freuen uns auf Ihren Besuch!",
        "weblink": "https://matznerviertel.at/graetzl-treff-am-matzner-markt/",
        "host": "Matznerviertel habitable",
        "category": "initiative",
        "reccuring": "weekly"
      },
      "geometry": {
        "type": "Point",
        "coordinates": [
          16.332565993748958,
          45.14032296837904
        ]
      }
    },
    {
      "type": "Feature",
      "properties": {
        "fid": 39,
        "id": 339,
        "timestamp_start": "2025-05-08T15:00:00+00:00",
        "timestamp_end": "2025-05-08T17:00:00+00:00",
        "title": "Grätzl-Treff am Matzner-Markt",
        "description": "Unsere Grätzl-Treffs finden, solange es den Matzner-Markt gibt, jeden Donnerstag im Monat von 17 bis 19 Uhr am Infostand des Lebenswerten Matznerviertels in der Wohnstraße Goldschlagstraße statt.\n\nAnliegen und Fragen zur Nachbarschaft im Matznerviertel können wir dann gerne von Angesicht zu Angesicht besprechen. Wir freuen uns auf Ihren Besuch!",
        "weblink": "https://matznerviertel.at/graetzl-treff-am-matzner-markt/",
        "host": "Matznerviertel habitable",
        "category": "initiative",
        "reccuring": "weekly"
      },
      "geometry": {
        "type": "Point",
        "coordinates": [
          16.332565994129528,
          45.14032296813458
        ]
      }
    },
    {
      "type": "Feature",
      "properties": {
        "fid": 40,
        "id": 340,
        "timestamp_start": "2025-05-01T15:00:00+00:00",
        "timestamp_end": "2025-05-01T17:00:00+00:00",
        "title": "Grätzl-Treff am Matzner-Markt",
        "description": "Unsere Grätzl-Treffs finden, solange es den Matzner-Markt gibt, jeden Donnerstag im Monat von 17 bis 19 Uhr am Infostand des Lebenswerten Matznerviertels in der Wohnstraße Goldschlagstraße statt.\n\nAnliegen und Fragen zur Nachbarschaft im Matznerviertel können wir dann gerne von Angesicht zu Angesicht besprechen. Wir freuen uns auf Ihren Besuch!",
        "weblink": "https://matznerviertel.at/graetzl-treff-am-matzner-markt/",
        "host": "Matznerviertel habitable",
        "category": "initiative",
        "reccuring": "weekly"
      },
      "geometry": {
        "type": "Point",
        "coordinates": [
          16.332565993720298,
          45.14032296790017
        ]
      }
    },
    {
      "type": "Feature",
      "properties": {
        "fid": 41,
        "id": 341,
        "timestamp_start": "2025-04-07T16:00:00+00:00",
        "timestamp_end": "2025-04-07T20:00:00+00:00",
        "title": "Projektgruppe: Radfahren in der Josefstadt",
        "description": "Das Ziel der Projektgruppe ist die Förderung des Radverkehrs in der Josefstadt, insbesondere die Ausarbeitung eines umfassenden Radverkehrskonzepts soll die Situation fürs Radfahren verbessern.\n\nDas Konzept soll mit den Entscheidungsträger:innen erarbeitet und bei künftigen Verkehrsmaßnahmen berücksichtigt werden.\n\nAuch konkrete Einzelmaßnahmen sollen zur Umsetzung gebracht werden; wichtig ist vor allem eine Radverkehrsinfrastruktur die für alle Alters- und NutzerInnengruppen intuitiv nutzbar und attraktiv ist. Eine Erhöhung des Radverkehrsanteils muss ohne Benachteiligung der Fußgeher:innen passieren.\n\nDas Leitbild unserer Projektgruppe steht hier rechts als Download zur Verfügung.",
        "weblink": "https://la21.wien/graetzllabor/josefstadt/#mitmachen",
        "host": "Radfahren in der Josefstadt",
        "category": "initiative",
        "reccuring": "one_time"
      },
      "geometry": {
        "type": "Point",
        "coordinates": [
          16.332565993621465,
          45.14032296792142
        ]
      }
    },
    {
      "type": "Feature",
      "properties": {
        "fid": 42,
        "id": 342,
        "timestamp_start": "2025-04-08T16:00:00+00:00",
        "timestamp_end": "2025-04-08T20:00:00+00:00",
        "title": "Projektgruppe: Radfahren in der Josefstadt",
        "description": "Das Ziel der Projektgruppe ist die Förderung des Radverkehrs in der Josefstadt, insbesondere die Ausarbeitung eines umfassenden Radverkehrskonzepts soll die Situation fürs Radfahren verbessern.\n\nDas Konzept soll mit den Entscheidungsträger:innen erarbeitet und bei künftigen Verkehrsmaßnahmen berücksichtigt werden.\n\nAuch konkrete Einzelmaßnahmen sollen zur Umsetzung gebracht werden; wichtig ist vor allem eine Radverkehrsinfrastruktur die für alle Alters- und NutzerInnengruppen intuitiv nutzbar und attraktiv ist. Eine Erhöhung des Radverkehrsanteils muss ohne Benachteiligung der Fußgeher:innen passieren.\n\nDas Leitbild unserer Projektgruppe steht hier rechts als Download zur Verfügung.",
        "weblink": "https://la21.wien/graetzllabor/josefstadt/#mitmachen",
        "host": "Radfahren in der Josefstadt",
        "category": "initiative",
        "reccuring": "one_time"
      },
      "geometry": {
        "type": "Point",
        "coordinates": [
          16.33256599361509,
          45.14032296792395
        ]
      }
    },
    {
      "type": "Feature",
      "properties": {
        "fid": 43,
        "id": 343,
        "timestamp_start": "2025-04-09T16:00:00+00:00",
        "timestamp_end": "2025-04-09T20:00:00+00:00",
        "title": "Projektgruppe: Radfahren in der Josefstadt",
        "description": "Das Ziel der Projektgruppe ist die Förderung des Radverkehrs in der Josefstadt, insbesondere die Ausarbeitung eines umfassenden Radverkehrskonzepts soll die Situation fürs Radfahren verbessern.\n\nDas Konzept soll mit den Entscheidungsträger:innen erarbeitet und bei künftigen Verkehrsmaßnahmen berücksichtigt werden.\n\nAuch konkrete Einzelmaßnahmen sollen zur Umsetzung gebracht werden; wichtig ist vor allem eine Radverkehrsinfrastruktur die für alle Alters- und NutzerInnengruppen intuitiv nutzbar und attraktiv ist. Eine Erhöhung des Radverkehrsanteils muss ohne Benachteiligung der Fußgeher:innen passieren.\n\nDas Leitbild unserer Projektgruppe steht hier rechts als Download zur Verfügung.",
        "weblink": "https://la21.wien/graetzllabor/josefstadt/#mitmachen",
        "host": "Radfahren in der Josefstadt",
        "category": "initiative",
        "reccuring": "one_time"
      },
      "geometry": {
        "type": "Point",
        "coordinates": [
          16.332565993690235,
          45.140322968367265
        ]
      }
    },
    {
      "type": "Feature",
      "properties": {
        "fid": 44,
        "id": 344,
        "timestamp_start": "2025-04-10T16:00:00+00:00",
        "timestamp_end": "2025-04-10T20:00:00+00:00",
        "title": "Projektgruppe: Radfahren in der Josefstadt",
        "description": "Das Ziel der Projektgruppe ist die Förderung des Radverkehrs in der Josefstadt, insbesondere die Ausarbeitung eines umfassenden Radverkehrskonzepts soll die Situation fürs Radfahren verbessern.\n\nDas Konzept soll mit den Entscheidungsträger:innen erarbeitet und bei künftigen Verkehrsmaßnahmen berücksichtigt werden.\n\nAuch konkrete Einzelmaßnahmen sollen zur Umsetzung gebracht werden; wichtig ist vor allem eine Radverkehrsinfrastruktur die für alle Alters- und NutzerInnengruppen intuitiv nutzbar und attraktiv ist. Eine Erhöhung des Radverkehrsanteils muss ohne Benachteiligung der Fußgeher:innen passieren.\n\nDas Leitbild unserer Projektgruppe steht hier rechts als Download zur Verfügung.",
        "weblink": "https://la21.wien/graetzllabor/josefstadt/#mitmachen",
        "host": "Radfahren in der Josefstadt",
        "category": "initiative",
        "reccuring": "one_time"
      },
      "geometry": {
        "type": "Point",
        "coordinates": [
          16.33256599369489,
          45.1403229683682
        ]
      }
    },
    {
      "type": "Feature",
      "properties": {
        "fid": 45,
        "id": 345,
        "timestamp_start": "2025-04-11T16:00:00+00:00",
        "timestamp_end": "2025-04-11T20:00:00+00:00",
        "title": "Projektgruppe: Radfahren in der Josefstadt",
        "description": "Das Ziel der Projektgruppe ist die Förderung des Radverkehrs in der Josefstadt, insbesondere die Ausarbeitung eines umfassenden Radverkehrskonzepts soll die Situation fürs Radfahren verbessern.\n\nDas Konzept soll mit den Entscheidungsträger:innen erarbeitet und bei künftigen Verkehrsmaßnahmen berücksichtigt werden.\n\nAuch konkrete Einzelmaßnahmen sollen zur Umsetzung gebracht werden; wichtig ist vor allem eine Radverkehrsinfrastruktur die für alle Alters- und NutzerInnengruppen intuitiv nutzbar und attraktiv ist. Eine Erhöhung des Radverkehrsanteils muss ohne Benachteiligung der Fußgeher:innen passieren.\n\nDas Leitbild unserer Projektgruppe steht hier rechts als Download zur Verfügung.",
        "weblink": "https://la21.wien/graetzllabor/josefstadt/#mitmachen",
        "host": "Radfahren in der Josefstadt",
        "category": "initiative",
        "reccuring": "one_time"
      },
      "geometry": {
        "type": "Point",
        "coordinates": [
          16.332565993763964,
          45.14032296789231
        ]
      }
    },
    {
      "type": "Feature",
      "properties": {
        "fid": 46,
        "id": 348,
        "timestamp_start": "2025-06-08T08:00:00+00:00",
        "timestamp_end": "2025-06-08T10:00:00+00:00",
        "title": "Ottakring für alle – Sicher bewegt!",
        "description": "NULLInitiative für eine Verkehrsberuhigung und sichere Querungsmöglichkeiten der Wernhardtstraße.",
        "weblink": "https://wirmachen.wien/ottakring-fuer-alle-sicher-bewegt/",
        "host": "Ottakring für alle – Sicher bewegt!",
        "category": "initiative",
        "reccuring": "weekly"
      },
      "geometry": {
        "type": "Point",
        "coordinates": [
          16.33256599413504,
          45.140322968149135
        ]
      }
    },
    {
      "type": "Feature",
      "properties": {
        "fid": 47,
        "id": 351,
        "timestamp_start": "2025-07-06T08:00:00+00:00",
        "timestamp_end": "2025-07-06T10:00:00+00:00",
        "title": "Ottakring für alle – Sicher bewegt!",
        "description": "NULLInitiative für eine Verkehrsberuhigung und sichere Querungsmöglichkeiten der Wernhardtstraße.",
        "weblink": "https://wirmachen.wien/ottakring-fuer-alle-sicher-bewegt/",
        "host": "Ottakring für alle – Sicher bewegt!",
        "category": "initiative",
        "reccuring": "weekly"
      },
      "geometry": {
        "type": "Point",
        "coordinates": [
          16.33256599380382,
          45.140322968379266
        ]
      }
    },
    {
      "type": "Feature",
      "properties": {
        "fid": 48,
        "id": 347,
        "timestamp_start": "2025-06-15T08:00:00+00:00",
        "timestamp_end": "2025-06-15T10:00:00+00:00",
        "title": "Ottakring für alle – Sicher bewegt!",
        "description": "NULLInitiative für eine Verkehrsberuhigung und sichere Querungsmöglichkeiten der Wernhardtstraße.",
        "weblink": "https://wirmachen.wien/ottakring-fuer-alle-sicher-bewegt/",
        "host": "Ottakring für alle – Sicher bewegt!",
        "category": "initiative",
        "reccuring": "weekly"
      },
      "geometry": {
        "type": "Point",
        "coordinates": [
          16.332565994101277,
          45.140322968031306
        ]
      }
    },
    {
      "type": "Feature",
      "properties": {
        "fid": 49,
        "id": 349,
        "timestamp_start": "2025-06-22T08:00:00+00:00",
        "timestamp_end": "2025-06-22T10:00:00+00:00",
        "title": "Ottakring für alle – Sicher bewegt!",
        "description": "NULLInitiative für eine Verkehrsberuhigung und sichere Querungsmöglichkeiten der Wernhardtstraße.",
        "weblink": "https://wirmachen.wien/ottakring-fuer-alle-sicher-bewegt/",
        "host": "Ottakring für alle – Sicher bewegt!",
        "category": "initiative",
        "reccuring": "weekly"
      },
      "geometry": {
        "type": "Point",
        "coordinates": [
          16.33256599413095,
          45.140322968097614
        ]
      }
    },
    {
      "type": "Feature",
      "properties": {
        "fid": 50,
        "id": 350,
        "timestamp_start": "2025-06-29T08:00:00+00:00",
        "timestamp_end": "2025-06-29T10:00:00+00:00",
        "title": "Ottakring für alle – Sicher bewegt!",
        "description": "NULLInitiative für eine Verkehrsberuhigung und sichere Querungsmöglichkeiten der Wernhardtstraße.",
        "weblink": "https://wirmachen.wien/ottakring-fuer-alle-sicher-bewegt/",
        "host": "Ottakring für alle – Sicher bewegt!",
        "category": "initiative",
        "reccuring": "weekly"
      },
      "geometry": {
        "type": "Point",
        "coordinates": [
          16.3325659939645,
          45.140322968346766
        ]
      }
    },
    {
      "type": "Feature",
      "properties": {
        "fid": 51,
        "id": 352,
        "timestamp_start": "2025-07-13T08:00:00+00:00",
        "timestamp_end": "2025-07-13T10:00:00+00:00",
        "title": "Ottakring für alle – Sicher bewegt!",
        "description": "NULLInitiative für eine Verkehrsberuhigung und sichere Querungsmöglichkeiten der Wernhardtstraße.",
        "weblink": "https://wirmachen.wien/ottakring-fuer-alle-sicher-bewegt/",
        "host": "Ottakring für alle – Sicher bewegt!",
        "category": "initiative",
        "reccuring": "weekly"
      },
      "geometry": {
        "type": "Point",
        "coordinates": [
          16.33256599352876,
          45.14032296798239
        ]
      }
    },
    {
      "type": "Feature",
      "properties": {
        "fid": 52,
        "id": 346,
        "timestamp_start": "2025-07-20T08:00:00+00:00",
        "timestamp_end": "2025-07-20T10:00:00+00:00",
        "title": "Ottakring für alle – Sicher bewegt!",
        "description": "NULLInitiative für eine Verkehrsberuhigung und sichere Querungsmöglichkeiten der Wernhardtstraße.",
        "weblink": "https://wirmachen.wien/ottakring-fuer-alle-sicher-bewegt/",
        "host": "Ottakring für alle – Sicher bewegt!",
        "category": "initiative",
        "reccuring": "weekly"
      },
      "geometry": {
        "type": "Point",
        "coordinates": [
          16.33256599393033,
          45.140322968359015
        ]
      }
    },
    {
      "type": "Feature",
      "properties": {
        "fid": 53,
        "id": 353,
        "timestamp_start": "2025-07-27T08:00:00+00:00",
        "timestamp_end": "2025-07-27T10:00:00+00:00",
        "title": "Ottakring für alle – Sicher bewegt!",
        "description": "NULLInitiative für eine Verkehrsberuhigung und sichere Querungsmöglichkeiten der Wernhardtstraße.",
        "weblink": "https://wirmachen.wien/ottakring-fuer-alle-sicher-bewegt/",
        "host": "Ottakring für alle – Sicher bewegt!",
        "category": "initiative",
        "reccuring": "weekly"
      },
      "geometry": {
        "type": "Point",
        "coordinates": [
          16.33256599413544,
          45.140322968140396
        ]
      }
    },
    {
      "type": "Feature",
      "properties": {
        "fid": 54,
        "id": 354,
        "timestamp_start": "2025-06-01T08:00:00+00:00",
        "timestamp_end": "2025-06-01T10:00:00+00:00",
        "title": "Ottakring für alle – Sicher bewegt!",
        "description": "NULLInitiative für eine Verkehrsberuhigung und sichere Querungsmöglichkeiten der Wernhardtstraße.",
        "weblink": "https://wirmachen.wien/ottakring-fuer-alle-sicher-bewegt/",
        "host": "Ottakring für alle – Sicher bewegt!",
        "category": "initiative",
        "reccuring": "weekly"
      },
      "geometry": {
        "type": "Point",
        "coordinates": [
          16.332565993481403,
          45.140322968237996
        ]
      }
    },
    {
      "type": "Feature",
      "properties": {
        "fid": 55,
        "id": 355,
        "timestamp_start": "2025-05-25T08:00:00+00:00",
        "timestamp_end": "2025-05-25T10:00:00+00:00",
        "title": "Ottakring für alle – Sicher bewegt!",
        "description": "NULLInitiative für eine Verkehrsberuhigung und sichere Querungsmöglichkeiten der Wernhardtstraße.",
        "weblink": "https://wirmachen.wien/ottakring-fuer-alle-sicher-bewegt/",
        "host": "Ottakring für alle – Sicher bewegt!",
        "category": "initiative",
        "reccuring": "weekly"
      },
      "geometry": {
        "type": "Point",
        "coordinates": [
          16.332565994028883,
          45.140322968312674
        ]
      }
    },
    {
      "type": "Feature",
      "properties": {
        "fid": 56,
        "id": 356,
        "timestamp_start": "2025-05-18T08:00:00+00:00",
        "timestamp_end": "2025-05-18T10:00:00+00:00",
        "title": "Ottakring für alle – Sicher bewegt!",
        "description": "NULLInitiative für eine Verkehrsberuhigung und sichere Querungsmöglichkeiten der Wernhardtstraße.",
        "weblink": "https://wirmachen.wien/ottakring-fuer-alle-sicher-bewegt/",
        "host": "Ottakring für alle – Sicher bewegt!",
        "category": "initiative",
        "reccuring": "weekly"
      },
      "geometry": {
        "type": "Point",
        "coordinates": [
          16.332565994078568,
          45.14032296827073
        ]
      }
    },
    {
      "type": "Feature",
      "properties": {
        "fid": 57,
        "id": 357,
        "timestamp_start": "2025-05-11T08:00:00+00:00",
        "timestamp_end": "2025-05-11T10:00:00+00:00",
        "title": "Ottakring für alle – Sicher bewegt!",
        "description": "NULLInitiative für eine Verkehrsberuhigung und sichere Querungsmöglichkeiten der Wernhardtstraße.",
        "weblink": "https://wirmachen.wien/ottakring-fuer-alle-sicher-bewegt/",
        "host": "Ottakring für alle – Sicher bewegt!",
        "category": "initiative",
        "reccuring": "weekly"
      },
      "geometry": {
        "type": "Point",
        "coordinates": [
          16.332565993450256,
          45.14032296814069
        ]
      }
    },
    {
      "type": "Feature",
      "properties": {
        "fid": 58,
        "id": 358,
        "timestamp_start": "2025-05-04T08:00:00+00:00",
        "timestamp_end": "2025-05-04T10:00:00+00:00",
        "title": "Ottakring für alle – Sicher bewegt!",
        "description": "NULLInitiative für eine Verkehrsberuhigung und sichere Querungsmöglichkeiten der Wernhardtstraße.",
        "weblink": "https://wirmachen.wien/ottakring-fuer-alle-sicher-bewegt/",
        "host": "Ottakring für alle – Sicher bewegt!",
        "category": "initiative",
        "reccuring": "weekly"
      },
      "geometry": {
        "type": "Point",
        "coordinates": [
          16.33256599360003,
          45.14032296793645
        ]
      }
    },
    {
      "type": "Feature",
      "properties": {
        "fid": 59,
        "id": 359,
        "timestamp_start": "2025-04-06T08:30:00+00:00",
        "timestamp_end": "2025-04-06T11:00:00+00:00",
        "title": "Döbling ",
        "description": "Die Latte liegt nach der Sternfahrt 2024 zur Radparade sehr hoch. Auch heuer werden wir uns aus mehreren Bezirksteilen Döblings zur Radparade am Ring aufmachen.",
        "weblink": "https://radeln.wien/sternfahrt-zur-radparade-2025/",
        "host": "Radeln in Döbling",
        "category": "protest",
        "reccuring": "one_time"
      },
      "geometry": {
        "type": "Point",
        "coordinates": [
          16.33256599407645,
          45.14032296828065
        ]
      }
    },
    {
      "type": "Feature",
      "properties": {
        "fid": 60,
        "id": 360,
        "timestamp_start": "2025-03-28T06:20:00+00:00",
        "timestamp_end": "2025-03-28T11:00:00+00:00",
        "title": "Bici-Bus",
        "description": "Der Bici-Bus Döbling fährt seit April täglich aus Sievering und Nussdorf!",
        "weblink": "https://radeln.wien/bici_bus/",
        "host": "Ciclismo en Döbling",
        "category": "initiative",
        "reccuring": "monthly"
      },
      "geometry": {
        "type": "Point",
        "coordinates": [
          16.33256599414862,
          45.14032296812616
        ]
      }
    },
    {
      "type": "Feature",
      "properties": {
        "fid": 61,
        "id": 361,
        "timestamp_start": "2025-04-25T05:20:00+00:00",
        "timestamp_end": "2025-04-25T10:00:00+00:00",
        "title": "Bici-Bus",
        "description": "Der Bici-Bus Döbling fährt seit April täglich aus Sievering und Nussdorf!",
        "weblink": "https://radeln.wien/bici_bus/",
        "host": "Ciclismo en Döbling",
        "category": "initiative",
        "reccuring": "monthly"
      },
      "geometry": {
        "type": "Point",
        "coordinates": [
          16.33256599368122,
          45.140322967905135
        ]
      }
    },
    {
      "type": "Feature",
      "properties": {
        "fid": 62,
        "id": 363,
        "timestamp_start": "2025-06-20T05:20:00+00:00",
        "timestamp_end": "2025-06-20T10:00:00+00:00",
        "title": "Bici-Bus",
        "description": "Der Bici-Bus Döbling fährt seit April täglich aus Sievering und Nussdorf!",
        "weblink": "https://radeln.wien/bici_bus/",
        "host": "Ciclismo en Döbling",
        "category": "initiative",
        "reccuring": "monthly"
      },
      "geometry": {
        "type": "Point",
        "coordinates": [
          16.332565993749725,
          45.14032296837015
        ]
      }
    },
    {
      "type": "Feature",
      "properties": {
        "fid": 63,
        "id": 362,
        "timestamp_start": "2025-05-23T05:20:00+00:00",
        "timestamp_end": "2025-05-23T10:00:00+00:00",
        "title": "Bici-Bus",
        "description": "Der Bici-Bus Döbling fährt seit April täglich aus Sievering und Nussdorf!",
        "weblink": "https://radeln.wien/bici_bus/",
        "host": "Ciclismo en Döbling",
        "category": "initiative",
        "reccuring": "monthly"
      },
      "geometry": {
        "type": "Point",
        "coordinates": [
          16.33256599414265,
          45.140322968176285
        ]
      }
    },
    {
      "type": "Feature",
      "properties": {
        "fid": 64,
        "id": 364,
        "timestamp_start": "2025-05-10T13:00:00+00:00",
        "timestamp_end": "2025-05-10T15:00:00+00:00",
        "title": "10.5. Kidical Mass in Döbling",
        "description": "Gemeinsam und mit Polizeibegleitung geht es nun zum Währinger Park. Für Jüngere besteht hier bereits die Möglichkeit für eine längere Rast. Wer noch die Runde durch Währing drehen will, kann uns mit den Teilnehmenden der Währinger Kidical Mass gerne zum Aumannplatz und retour zum Währinger Park begleiten. Die gesamte Route ist rund 7 km lang und wird in ca. einer Stunde Fahrzeit zurückgelegt. Bei Bedarf gibt es eine gemeinsame Rückfahrt nach Oberdöbling. Hier ist die Route im Detail einsehbar. Die Kidical Mass ist als Demonstration angemeldet. Die Teilnahme erfolgt auf eigene Gefahr. Alle Teilnehmenden tragen selbst Sorge für die straßenverkehrstaugliche und verkehrssichere Ausrüstung ihrer Räder.\n\nDie Veranstaltung richtet sich an Familien mit Kindern im Volksschul-, Vorschul- sowie Kindergartenalter. Gemeinsam wird eine bunte und kindgerechte Rundfahrt mit viel Musik und Seifenblasen veranstaltet. Einen gemütlichen, gemeinsamen Ausklang gibt es dann im Währinger Park mit Picknick und Spielen. Die “Kidical Mass” setzt sich seit 2018 für kinderfreundliche und lebenswerte Städte ein. Besonders wichtig ist uns die Sicherheit auf den Alltagswegen der Kinder, den Wegen zu den Bildungsinstitutionen. Heuer findet dieser Kinder-Rad-Corso gleichzeitig in beinahe allen Wiener Bezirken statt.",
        "weblink": "https://radeln.wien/10-5-kidical-mass-start-in-doebling/",
        "host": "Radeln in Döbling",
        "category": "initiative",
        "reccuring": "one_time"
      },
      "geometry": {
        "type": "Point",
        "coordinates": [
          16.332565994150407,
          45.14032296812572
        ]
      }
    },
    {
      "type": "Feature",
      "properties": {
        "fid": 65,
        "id": 365,
        "timestamp_start": "2025-06-06T15:00:00+00:00",
        "timestamp_end": "2025-06-06T17:00:00+00:00",
        "title": "Radeln For Future: Vorrang für aktive Mobilität",
        "description": "Ab 2027 soll der Steinitzsteg für fast 5 Jahre dem Autoverkehr geopfert werden. Zufußgehenden und Radfahrenden bleibt nur der Umweg über die Floridsdorfer Brücke.\nWir fordern: 1 Fahrspur muss für Zufußgehende und Radfahrende offen bleiben!\n\nAm Weg zum Steinitzsteg beradeln wir auch die wichtigen Achsen Wallensteinstraße – Gentzgasse und Liechtensteinstraße – Heiligenstädter Straße, auf denen durchgängige Radwege fehlen.",
        "weblink": "https://radelnforfuture.at/",
        "host": "Radeln For Future",
        "category": "protest",
        "reccuring": "one_time"
      },
      "geometry": {
        "type": "Point",
        "coordinates": [
          16.33256599347789,
          45.14032296823316
        ]
      }
    },
    {
      "type": "Feature",
      "properties": {
        "fid": 66,
        "id": 366,
        "timestamp_start": "2025-05-02T15:00:00+00:00",
        "timestamp_end": "2025-05-02T17:00:00+00:00",
        "title": "Gürtel Bike Ride 2025",
        "description": "Wer hat sich noch nicht über den Radweg entlang des Gürtels geärgert? Alle paar hundert Meter muss die Seite gewechselt werden, beim Westbahnhof sogar über die Autofahrbahnen. Statt wie Autofahrende nur 2 Ampeln passieren zu müssen, warten auf Radfahrende gleich 7 Ampeln! Zufußgehende sind mit 5 Ampeln auch nicht viel besser dran.\n\nDas entspricht nicht unserer Vorstellung von einem fairen Miteinander im Verkehr. Warum werden ausgerechnet die Gruppen, die sich aktiv klimafreundlich fortbewegen, benachteiligt?\n\nAm Margartengürtel und Wiedner Gürtel gibt es nicht mal einen Radweg!\n\nDer Gürtel ist mehr als 11 km lang und eine wichtige Hauptverkehrsroute. Derzeit steht diese aber nur dem Kfz-Verkehr in einer attraktiven Weise zur Verfügung. Zwischen Eichenstraße und Landstraßer Hauptstraße gibt es nur sporadische Radwegteilstücke. Das muss sich ändern. Damit die Verkehrswende gelingt, muss in Wien ein dichtes Netz durchgängiger Radwege geschaffen werden.",
        "weblink": "https://radelnforfuture.at/guertel-bike-ride/",
        "host": "Radeln For Future",
        "category": "protest",
        "reccuring": "one_time"
      },
      "geometry": {
        "type": "Point",
        "coordinates": [
          16.332565994094452,
          45.14032296822146
        ]
      }
    },
    {
      "type": "Feature",
      "properties": {
        "fid": 67,
        "id": 367,
        "timestamp_start": "2025-04-04T15:00:00+00:00",
        "timestamp_end": "2025-04-04T17:00:00+00:00",
        "title": "Future Bike Ride – it’s our future! ",
        "description": "Ende April wird in Wien gewählt. Die Demokratie lebt von der Beteiligung aller. Darum wollen wir den Menschen gemeinsam mit anderen Initiativen und Organisationen mit positiven Zukunftsvisionen viele Gründe geben, um wählen zu gehen, und der Politik zeigen, welche Themen den Menschen wichtig sind.",
        "weblink": "https://radelnforfuture.at/future-bike-ride/?cn-reloaded=1",
        "host": "Radeln For Future",
        "category": "protest",
        "reccuring": "one_time"
      },
      "geometry": {
        "type": "Point",
        "coordinates": [
          16.332565994041357,
          45.14032296797346
        ]
      }
    },
    {
      "type": "Feature",
      "properties": {
        "fid": 68,
        "id": 368,
        "timestamp_start": "2025-03-20T23:00:00+00:00",
        "timestamp_end": "2025-12-30T23:00:00+00:00",
        "title": "Grünspur statt Parkspur!",
        "description": "Das Cabriobeet ist seit 2021 ein Symbol\nfür die klimschädlichen Privilegien von Autos in Wien. \n\nDer Wohnraum in Wien wird immer teurer, Parkraum wird aber verschenkt: Für  läppische 10€/Monat kann mit einem Auto öffentlicher Raum privatisiert werden. Wäre es nicht gerecht, ähnlich unkompliziert & billig ein Hochbeet aufstellen zu können? Aktuell gibt es dafür keine rechtliche Grundlage – befindet sich ein Cabrio unter dem Hochbeet, ist das alles aber kein Problem.\n\nDabei müssten wir gerade im Verkehrssektor die CO2-Emissionen dringend senken. Die Stadt Wien möchte in ihrem Klimafahrplan bis 2030 die Anzahl der Autofahrten in der Stadt halbieren. Maßnahmen dafür gibt es keine, außerdem wird an klimaschädlichen Autobahnprojekten im Nord-Osten der Stadt festgehalten.",
        "weblink": "http://www.cabriobeet.net/",
        "host": "Cabriobeet",
        "category": "protest",
        "reccuring": "daily"
      },
      "geometry": {
        "type": "Point",
        "coordinates": [
          16.332565994062744,
          45.14032296828322
        ]
      }
    },
    {
      "type": "Feature",
      "properties": {
        "fid": 69,
        "id": 369,
        "timestamp_start": "2025-06-04T16:30:00+00:00",
        "timestamp_end": "2025-06-04T18:00:00+00:00",
        "title": "Das Radlobby 21 Treffen",
        "description": "Wir veranstalten einmal im Jahr eine öffentliche Radrundfahrt, um das Potential aber auch die Schwachstellen im Radverkehr in Floridsdorf stärker sichtbar zu machen, aber auch kleinere Exkursionen zu konkreten Problemstellen, um vor Ort mögliche Lösungen zu besprechen.",
        "weblink": "https://www.radlobby.at/wien/floridsdorf",
        "host": "Radlobby Floridsdorf",
        "category": "initiative",
        "reccuring": "monthly"
      },
      "geometry": {
        "type": "Point",
        "coordinates": [
          16.332565993995413,
          45.14032296792268
        ]
      }
    },
    {
      "type": "Feature",
      "properties": {
        "fid": 70,
        "id": 370,
        "timestamp_start": "2025-07-02T16:30:00+00:00",
        "timestamp_end": "2025-07-02T18:00:00+00:00",
        "title": "Das Radlobby 21 Treffen",
        "description": "Wir veranstalten einmal im Jahr eine öffentliche Radrundfahrt, um das Potential aber auch die Schwachstellen im Radverkehr in Floridsdorf stärker sichtbar zu machen, aber auch kleinere Exkursionen zu konkreten Problemstellen, um vor Ort mögliche Lösungen zu besprechen.",
        "weblink": "https://www.radlobby.at/wien/floridsdorf",
        "host": "Radlobby Floridsdorf",
        "category": "initiative",
        "reccuring": "monthly"
      },
      "geometry": {
        "type": "Point",
        "coordinates": [
          16.332565993549455,
          45.14032296796775
        ]
      }
    },
    {
      "type": "Feature",
      "properties": {
        "fid": 71,
        "id": 371,
        "timestamp_start": "2025-05-07T16:30:00+00:00",
        "timestamp_end": "2025-05-07T18:00:00+00:00",
        "title": "Das Radlobby 21 Treffen",
        "description": "Wir veranstalten einmal im Jahr eine öffentliche Radrundfahrt, um das Potential aber auch die Schwachstellen im Radverkehr in Floridsdorf stärker sichtbar zu machen, aber auch kleinere Exkursionen zu konkreten Problemstellen, um vor Ort mögliche Lösungen zu besprechen.",
        "weblink": "https://www.radlobby.at/wien/floridsdorf",
        "host": "Radlobby Floridsdorf",
        "category": "initiative",
        "reccuring": "monthly"
      },
      "geometry": {
        "type": "Point",
        "coordinates": [
          16.332565994100968,
          45.14032296799928
        ]
      }
    },
    {
      "type": "Feature",
      "properties": {
        "fid": 72,
        "id": 372,
        "timestamp_start": "2025-04-08T08:00:00+00:00",
        "timestamp_end": "2025-04-08T12:00:00+00:00",
        "title": "Verkehrspolitisches Wahlbarometer zur Wien-Wahl 2025",
        "description": "Mehr Platz für Baum, Fuß und Rad! Das war der Slogan der größten Verkehrsinitiative Wiens im Jahr 2020. “Platz für Wien” hatte anlässlich der Wien-Wahl vor fünf Jahren 18 zentrale verkehrspolitische Maßnahmen entwickelt und die Positionierung von Parteien und Bezirksvorstehungen eingefordert. 57.000 Wiener:innen haben diese Anliegen unterzeichnet.",
        "weblink": "https://geht-doch.wien/2025/04/08/verkehrspolitisches-wahlbarometer-zur-wien-wahl-2025/",
        "host": " \ngeht-doch.wien",
        "category": "initiative",
        "reccuring": "initiaitve"
      },
      "geometry": {
        "type": "Point",
        "coordinates": [
          16.332565993855134,
          45.14032296788833
        ]
      }
    }
  ]
}