{
"type": "FeatureCollection",
"name": "dididoitcorrectly",
"crs": { "type": "name", "properties": { "name": "urn:ogc:def:crs:OGC:1.3:CRS84" } },
"features": [
{ "type": "Feature", "properties": { "id": 300821, "timestamp_start": "2025-06-23", "timestamp_end": "2025-06-23", "title": "Niederlassungsrecht und Staatsbürgerschaft", "description": "In welcher „rechtlichen Matrix“ bewegen sich Migrant_innen in Österreich? Welche Angehörige können sie unter welchen Voraussetzungen nach Österreich holen? Wann erhalten sie die österreichische Staatsbürgerschaft? Wie unterscheidet sich ihr Status von jenem der Asylwerber_innen? Das Niederlassungsrecht wird ausführlich behandelt, um die rechtliche Situation von Klient_innen rasch erfassen zu können.", "weblink": "https://www.wienxtra.at/ifp/event/36230/?return_url=%2Ferwachsene%2F", "host": "WIENXTRA", "category": "workshop", "reccuring": "one_time" }, "geometry": { "type": "Point", "coordinates": [ 16.343693624743594, 48.211632789556404 ] } },
{ "type": "Feature", "properties": { "id": 300822, "timestamp_start": "2025-06-23", "timestamp_end": "2025-06-23", "title": "Überblick über das Asylrecht", "description": "Die Bildungsveranstaltung bietet einen Überblick über die verschiedenen Fluchtgründe und soll Grundkenntnisse des Asylrechts vermitteln. Dabei liegt der Hauptfokus auf der Darstellung der rechtlichen Rahmenbedingungen (Genfer Flüchtlingskonvention, österreichische Rechtslage) sowie des Ablaufs des Asylverfahrens, damit die Teilnehmer_innen ein grundlegendes Verständnis für diese komplexen Prozesse erhalten. Des Weiteren wird ein Einblick in die Vielfalt der Aufenthaltstitel und -dokumente gegeben, die für Asylsuchende und Flüchtlinge relevant sind. Hierbei werden auch die damit verbundenen sozialen Rechte beleuchtet.", "weblink": "https://www.wienxtra.at/ifp/event/36229/?return_url=%2Ferwachsene%2F", "host": "WIENXTRA", "category": "workshop", "reccuring": "one_time" }, "geometry": { "type": "Point", "coordinates": [ 16.343646380336892, 48.211633934384743 ] } },
{ "type": "Feature", "properties": { "id": 300823, "timestamp_start": "2025-06-24", "timestamp_end": "2025-06-25", "title": "Bis hier hin und nicht weiter!", "description": "In der Offenen Jugendarbeit bin ich in vielen Rollen gefragt. Neben meiner Professionalität auch als Mensch mit meinem Denken, meinen Vorstellungen und meinen Regeln. Das alles wird ständig auf die Probe gestellt. Sowohl im Jugendzentrum als auch im öffentlichen Raum halten sich Jugendliche nicht immer an soziale Regeln oder Vereinbarungen. Es werden persönliche Grenzen aber auch gesetzliche Bestimmungen ausgelotet oder sogar überschritten, was in Einzelfällen zu kriminellen Handlungen führen kann. Mit welchem Selbstbewusstsein und welcher Sicherheit kann ich auftreten, um mit den Grenzüberschreitungen der Jugendlichen konstruktiv umgehen zu können? Wie kann ich auf Regelverstöße reagieren? Welche Handlungsoptionen habe ich? Wie werden Grenzen so gesetzt, dass sie geachtet werden? Wie viel darf oder muss ich aushalten?", "weblink": "https://www.wienxtra.at/ifp/event/36222/?return_url=%2Ferwachsene%2F", "host": "WIENXTRA", "category": "workshop", "reccuring": "one_time" }, "geometry": { "type": "Point", "coordinates": [ 16.343678162937767, 48.211608175740814 ] } },
{ "type": "Feature", "properties": { "id": 30081, "timestamp_start": "2025-06-15", "timestamp_end": "2025-06-16", "title": "Artikulationen der Demokratiebildung", "description": "Wir freuen uns, zur Tagung Artikulationen der Demokratiebildung am 15. und 16. Mai 2025 in Wien einzuladen. Ziel der Tagung ist es, das Verhältnis von Sprache, Demokratie und Bildung zu beleuchten. Es sollen theoretische, empirische und didaktische Perspektiven in Dialog gebracht werden.", "weblink": "https://www.demokratiezentrum.org/termine/artikulationen-der-demokratiebildung/", "host": "Arbeitsbereich Didaktik der Politischen Bildung, Arbeitsbereich Sprachlehr- und -lernforschung, Arbeitsbereich Geschichtsdidaktik der Universität Wien und Demokratiezentrum Wien", "category": "pol_education", "reccuring": "one_time" }, "geometry": { "type": "Point", "coordinates": [ 16.384144275225538, 48.211565208811237 ] } },
{ "type": "Feature", "properties": { "id": 30082, "timestamp_start": "2025-06-14", "timestamp_end": "2025-06-14", "title": "Verrückte Welt: Politische Bildung in herausfordernden Zeiten", "description": "Die Welt scheint aus den Fugen geraten zu sein – es ist eine verrückte Welt, die sich in zahlreichen Krisen manifestiert. Kriege in Europa, im sogenannten Nahen Osten, Klimakatastrophen, soziale Ungerechtigkeiten im globalen Maßstab, verschärft durch Populismus/Antisemitismus/Rassismus und Sexismus und verstärkt durch digitale Desinformation, sind Beispiele dafür. Demokratische Orientierung im Denken und Handeln wird erschwert. Vor dem Hintergrund dieser Verunsicherungen gewinnt Politische Bildung erheblich an Bedeutung. Der internationale Workshop befasst sich mit diesen Herausforderungen und gibt Gelegenheit, um Möglichkeitsräume zu diskutieren. Wie können politische Orientierungs-, Urteils- und Kritikfähigkeit gefördert werden, um beispielsweise Informationen zu hinterfragen, Zusammenhänge zu erkennen sowie schließlich Vernetzungen und Handlungsperspektiven zu entwickeln?", "weblink": "https://www.demokratiezentrum.org/termine/verrueckte-welt-politische-bildung-in-herausfordernden-zeiten/", "host": "Univ.-Prof. Dr. Dirk Lange (Arbeitsbereich Didaktik der Politischen Bildung/Universität Wien; Demokratiezentrum Wien), Prof. Dr.in Waltraud Meints-Stender (Hochschule Niederrhein; Demokratiezentrum Wien), Dr.in Lara Kierot (Arbeitsbereich Didaktik der Pol. Bildung/Universität Wien)", "category": "pol_education", "reccuring": "one_time" }, "geometry": { "type": "Point", "coordinates": [ 16.363519746040716, 48.219534401340368 ] } },
{ "type": "Feature", "properties": { "id": 30083, "timestamp_start": "2025-05-05", "timestamp_end": "2025-05-05", "title": "Demokratiebildung – Wohin?", "description": "Diese Veranstaltung widmet sich dem Beitrag „Demokratiebildung. Konzepte, Strategien und Perspektiven“ von Dirk Lange, Lara Kierot, Britta Breser und Wolfgang Beutel im neu erschienenen Nationalen Bildungsbericht 2024 für Österreich. Der Beitrag befasste sich mit Demokratiebildung als Bezugsgröße Politischer Bildung in Österreich, der Blick wurde hierbei insbesondere auf die Schule gelegt. Aufgezeigt wurden relevante Entwicklungen im Laufe der letzten Jahre sowie schließlich der notwendige Veränderungsbedarf für die Demokratiebildung in Österreich. Im Rahmen der Veranstaltung wird Einblick in Erkenntnisse und entwickelte Empfehlungen zu ausgewählten Bereichen gegeben und zu einem gemeinsamen Gespräch eingeladen.", "weblink": "https://www.demokratiezentrum.org/termine/demokratiebildung-wohin/", "host": "Demokratiezentrum Wien, Arbeitsbereich Didaktik der Politischen Bildung der Universität Wien", "category": "pol_education", "reccuring": "one_time" }, "geometry": { "type": "Point", "coordinates": [ 16.363500830744943, 48.2195356616254 ] } },
{ "type": "Feature", "properties": { "id": 30084, "timestamp_start": "2020-12-23", "timestamp_end": "2040-06-13", "title": "Demokratiewerkstatt ", "description": "Die Demokratiewerkstatt bietet sieben unterschiedliche Workshops im Parlament an, um junge Menschen für Demokratie zu begeistern. ", "weblink": "https://www.parlament.gv.at/erleben/demokratiebildung/demokratiewerkstatt/werkstaetten", "host": "Parlament Österreich", "category": "workshop", "reccuring": "one_time" }, "geometry": { "type": "Point", "coordinates": [ 16.359034298903612, 48.208006956767306 ] } },
{ "type": "Feature", "properties": { "id": 30085, "timestamp_start": "2019-06-11", "timestamp_end": "2030-06-11", "title": "J.at - Jugendtreff alte Trafik", "description": "RAUS AUS DEM GRAUEN ALLTAG\n\nwe proudly present - unsere Außenfassade!\n\nbunt und vielfältig- wie auch wir sind - sind wir mittendrin am Volkertplatz\n\nUnd ihr seid herzlich willkommen ins J.at zu kommen!\n\nWir sind auch immer in den Parks und am Volkertplatz zu treffen.", "weblink": "https://www.jugendzentren.at/standorte/jat/", "host": "Verein Wiener Jugendzentren", "category": "initiative", "reccuring": "initiative" }, "geometry": { "type": "Point", "coordinates": [ 16.406555287978218, 48.223273872928857 ] } },
{ "type": "Feature", "properties": { "id": 30086, "timestamp_start": "2021-06-02", "timestamp_end": "2032-06-16", "title": "Jugendtreff Nordbahnhof", "description": "Der Jugendtreff Nordbahnhof ist eine Jugendeinrichtung im Stadtentwicklungsgebiet Nordbahnhof. Er bietet auf mehreren Ebenen neben einem zentralen Jugendcafébereich mehrere Räume für Gruppenaktivitäten. Durch die unmittelbare Anbindung des Gemeinschaftsraumes im Haus lassen sich die Angebotsflächen im Jugendtreff erweitern bzw. können die Kellerräume auch den Bewohner:innen des Hauses zur Verfügung gestellt werden. Die jugendadäquate  Ausstattung (Billard, Tischfußball, Tischtennis, Musikanlage, Brettspiele, Internetzugang etc.) steht kostenlos zur Verfügung.", "weblink": "https://www.jugendzentren.at/standorte/nordbahnhof/", "host": "Verein Wiener Jugendzentren ", "category": "initiative", "reccuring": "initiative" }, "geometry": { "type": "Point", "coordinates": [ 16.396472201627915, 48.228542169255419 ] } },
{ "type": "Feature", "properties": { "id": 30087, "timestamp_start": "2020-06-03", "timestamp_end": "2031-06-05", "title": "J.at - Jugendtreff alte Trafik", "description": "RAUS AUS DEM GRAUEN ALLTAG\n\nwe proudly present - unsere Außenfassade!\n\nbunt und vielfältig- wie auch wir sind - sind wir mittendrin am Volkertplatz\n\nUnd ihr seid herzlich willkommen ins J.at zu kommen!\n\nWir sind auch immer in den Parks und am Volkertplatz zu treffen.", "weblink": "https://www.jugendzentren.at/standorte/jat/", "host": "Verein Wiener Jugendzentren", "category": "initiative", "reccuring": "initiative" }, "geometry": { "type": "Point", "coordinates": [ 16.386931363274208, 48.223041776919452 ] } },
{ "type": "Feature", "properties": { "id": 30088, "timestamp_start": "2018-06-20", "timestamp_end": "2032-06-16", "title": "Zentrum 9", "description": "In unserem Jugendzentrum direkt beim Lichtentalerpark haben wir ein gemütliches Jugendcafé mit Kochmöglichkeit, täglichem Jausenangebot und mit vielen, verschiedenen Brett- und Karten-Spielen. Die Disco mit DJ-Pult und Lichtanlage ist für Musik und zum Tanzen bestens ausgestattet.", "weblink": "https://www.jugendzentren.at/standorte/zentrum9/", "host": "Verein Wiener Jugendzentren", "category": "initiative", "reccuring": "initiative" }, "geometry": { "type": "Point", "coordinates": [ 16.3573682448447, 48.227531134323961 ] } },
{ "type": "Feature", "properties": { "id": 30089, "timestamp_start": "2014-06-11", "timestamp_end": "2037-06-10", "title": "Back on Stage 16/17", "description": "Back on Stage 16/17 bietet Mobile Jugendarbeit im 16. und 17. Wiener Gemeindebezirk. Die Anlaufstelle von BoS 16/17 befindet sich in der Hernalser Hauptstraße 24, wenige Gehminuten von der U6-Station Alserstraße entfernt. Unsere ca. 250 m² große Einrichtung bietet neben einem Aufenthaltsraum für Jugendliche mit PCs, Wuzzler und Fernseher, ein Tonstudio und einen Videoschnittraum. Weiters gibt es noch Büroräumlichkeiten und eine Küche. ", "weblink": "https://www.jugendzentren.at/standorte/bos16-17/", "host": "Verein Wiener Jugendzentren", "category": "initiative", "reccuring": "initiative" }, "geometry": { "type": "Point", "coordinates": [ 16.339198392980759, 48.21713306541897 ] } },
{ "type": "Feature", "properties": { "id": 300810, "timestamp_start": "2012-06-20", "timestamp_end": "2038-06-30", "title": "Musisches Zentrum Wien", "description": "Das Musische Zentrum Wien, gegründet 1976 von Doris Tarlowski, ist ein offenes Haus voller Kunst und Kreativität für Kinder und Jugendliche mit allen Frei- und Spielräumen für die fantasievolle Auseinandersetzung mit Musik, Tanz, Theater und mehr – ein offenes Haus für ästhetische Praxis mit Lust am Experiment.", "weblink": "https://www.jugendzentren.at/standorte/musisches-zentrum/", "host": "Verein Wiener Jugendzentren", "category": "initiative", "reccuring": "initiative" }, "geometry": { "type": "Point", "coordinates": [ 16.350013059728717, 48.207871516376805 ] } },
{ "type": "Feature", "properties": { "id": 300811, "timestamp_start": "2012-06-20", "timestamp_end": "2038-06-16", "title": "Flash Mädchencafé", "description": "Das flash ist ein partizipatives Mädchen*café, ein Raum nur für Mädchen* und junge Frauen*, die ihre Freizeit hier verbringen wollen. Auf 120 m2 gibt es im Cafébereich eine Bar, PCs mit Internet, WIFI, die Schreibwand und Infomaterial. In der Disco gibt es eine Bühne mit Musikanlage, Beamer, Spiegel für Tanzen, Singen und Bewegung, sowie einen Wuzzler. Im Chillraum, mit Hochbett und Boxsack, kann man sich auch mal zurückziehen oder austoben. Im Hof gibt es eine Graffitiwand und den Mini-Garten. Der Gehsteig vor dem flash kann im Sommer mitgenutzt werden.", "weblink": "https://www.jugendzentren.at/standorte/flash/", "host": "Verein Wiener Jugendzentren", "category": "initiative", "reccuring": "initiative" }, "geometry": { "type": "Point", "coordinates": [ 16.345117681167171, 48.20117664248702 ] } },
{ "type": "Feature", "properties": { "id": 300812, "timestamp_start": "2013-06-12", "timestamp_end": "2034-06-07", "title": "Jugendzentrum come2gether", "description": "Das Jugend- und Stadtteilzentrum come2gether ist eine \"eierlegende Wollmilchsau\" auf 3 Ebenen:\n\n    Veranstaltungssaal / Disco\n    Jugend- / Frauentreff\n    Lern-,  Gruppen- und Medienräume\n\nDementsprechend vielfältig ist das Angebot: Neben den „klassischen“ Jugendzentrumsangeboten gibt es Montag und Mittwoch Lernhilfe im Lernraum, einen 3D-Drucker und einen Plotter im Café und ein Studio, in dem Jugendliche an ihren eigenen Songs feilen können. Zudem nutzen derzeit elf verschiedene Gruppen - vom selbstorganisierten Jugendtanztraining über Selbstverteidigungsgruppen bis zur Jongliergruppe - unseren Saal, in dem auch diverse Bewegungsangebote für Frauen stattfinden.", "weblink": "https://www.jugendzentren.at/standorte/c2g/", "host": "Verein Wiener Jugendzentren", "category": "initiative", "reccuring": "initiative" }, "geometry": { "type": "Point", "coordinates": [ 16.402621718014004, 48.19365799908752 ] } },
{ "type": "Feature", "properties": { "id": 300813, "timestamp_start": "2012-06-15", "timestamp_end": "2034-06-14", "title": "Back on Stage 5", "description": "Back on Stage 5 (BoS 5) ist die Mobile Jugendarbeit im 5. Wiener Gemeindebezirk. Die Anlaufstelle von BoS 5 befindet sich in der Nähe des Margaretenplatz in der Strobachgasse gegenüber vom Fitnesscenter John Harris. Unsere ca. 100 m2 große Einrichtung bietet neben einem Aufenthaltsraum für Jugendliche, PS4, Beamer und Box-Sack auch ein Tonstudio, eine Küche sowie Büroräumlichkeiten mit PC´s.", "weblink": "https://www.jugendzentren.at/standorte/bos5/", "host": "Verein Wiener Jugendzentren", "category": "initiative", "reccuring": "initiative" }, "geometry": { "type": "Point", "coordinates": [ 16.358708718244124, 48.192587711717543 ] } },
{ "type": "Feature", "properties": { "id": 300814, "timestamp_start": "2006-06-02", "timestamp_end": "2035-06-02", "title": "Jugendtreff Sovie", "description": "Der Jugendtreff SOVIE liegt im Sonnwendviertel in der Nähe des Wiener Hauptbahnhofs im Bildungscampus Sonnwendviertel im Untergeschoss.\n\nEr besteht aus einem 120 m² großen Raum mit Küche und einem Jugendcafébereich.\n\nWir haben....\n\n    Tischtennis\n    Wuzzeln\n    Playstation\n    Werkraum\n    Internetzugänge\n    W-Lan\n    Dj - Equipment\n    Kochmöglichkeiten\n    vieles mehr......\n", "weblink": "https://www.jugendzentren.at/standorte/sovie/", "host": "Verein Wiener Jugendzentren", "category": "initiative", "reccuring": "initiative" }, "geometry": { "type": "Point", "coordinates": [ 16.384506393881566, 48.178352783745808 ] } },
{ "type": "Feature", "properties": { "id": 300815, "timestamp_start": "2006-06-02", "timestamp_end": "2035-06-02", "title": "Jugendtreff Arthaberbad", "description": "In Innerfavoriten ist immer etwas los, und wir sind mittendrin. In den Parks der näheren Umgebung sind wir regelmäßig aktiv, wenn wir nicht gerade in unserem schönen ehemaligen Freibad freizeitpädagogische Angebote von Akrobatik bis Batik gestalten. Wir orientieren uns an den Themen und Bedürfnissen der Besucher:innen der AHB und ergänzen sie mit einem Genderblick, einer antirassistischen sowie feministischen Grundhaltung und Parteilichkeit gegenüber der Zielgruppe.\n", "weblink": "https://www.jugendzentren.at/standorte/arthaberbad/", "host": "Verein Wiener Jugendzentren", "category": "initiative", "reccuring": "initiative" }, "geometry": { "type": "Point", "coordinates": [ 16.371940781088696, 48.173003565471944 ] } },
{ "type": "Feature", "properties": { "id": 300816, "timestamp_start": "2025-06-16", "timestamp_end": "2025-06-18", "title": "Wiener Ehrenamtswoche", "description": "Kinder und Jugendliche wollen mithelfen, mitgestalten und sich für die Gesellschaft, die Umwelt, und für Wien engagieren – also unterstützen wir sie auch 2025 wieder dabei!\n\nKurz vor den Sommerferien von Mo, 16. - Mi, 18. Juni und Mo, 23. - Mi, 25. Juni heißt’s daher im Rahmen der fünften Wiener Ehrenamtswoche für Wien’s Schulklassen wieder „Einfach machen!“\n\nGemeinnützige Projekte unterschiedlicher Organisationen, Vereine, NGOs sowie von der Stadt Wien laden Schulklassen dazu ein, mitanzupacken und sich für die Gesellschaft, die Umwelt und die Stadt stark zu machen.", "weblink": "https://www.wienxtra.at/schulevents/wiener-ehrenamtswoche/", "host": "Wienxtra", "category": "participation", "reccuring": "one_time" }, "geometry": { "type": "Point", "coordinates": [ 16.358575428233788, 48.21066247116439 ] } },
{ "type": "Feature", "properties": { "id": 300817, "timestamp_start": "2025-06-12", "timestamp_end": "2025-06-13", "title": "Lehrgang Politische Erwachsenenbildung 2025", "description": "Gleichheit in Differenz – soziale Gerechtigkeit – Intersektionalität:\n\n    Feministische Theorie und (politische) Praxis als Paradigma neuer sozialer Bewegungen; Geschichte der Frauenbewegungen\n    Diversität, Ungleichheit, Diskriminierung und Antidiskriminierung\n    intersektionale Analyse der sozialen Verhältnisse und soziale Gerechtigkeit\n    Gleichheit und Differenz als Gegenstand und als didaktische Leitlinie der pEB: Grundzüge einer differenzbewussten Didaktik \n\n    (Inputs; interaktive Sozialformen; Exkursion)\n", "weblink": "https://politischebildung.at/veranstaltungskalender/veranstaltungskalender-oegpb/?dat=2025-06-12#evtdet42379", "host": "Österreichischen Gesellschaft für Politische Bildung", "category": "pol_education", "reccuring": "one_time" }, "geometry": { "type": "Point", "coordinates": [ 16.431872816646599, 48.205631576823023 ] } },
{ "type": "Feature", "properties": { "id": 300819, "timestamp_start": "2025-10-02", "timestamp_end": "2025-10-03", "title": "Kritische Medienkompetenz. Politische Erwachsenenbildung im digitalen Zeitalter", "description": "Mag. Helmut Peissl, Studium der Medien- und Kommunikationswissenschaft an der Alpen-Adria-Universität Klagenfurt; Leitung von Studien zum nichtkommerziellen Rundfunk in Österreich und Europa mit Schwerpunkt auf Medien und Mehrsprachigkeit, Lebensbegleitendes Lernen und Public Value, leitet seit 2010 das Community Medien Institut COMMIT (www.commit.at); externer Trainer der ÖGPB\nMag. Simon Olipitz, BA hat Publizistik und Kommunikationswissenschaft an der Universität Wien und Medienmanagement an der FH St. Pölten studiert. Seit 2017 Mitarbeiter von COMMIT in den Bereichen Bildungsmanagement und Kritische Medienkompetenz; externer Trainer der ÖGPB", "weblink": "https://politischebildung.at/veranstaltungskalender/veranstaltungskalender-oegpb/?dat=2025-10-02#evtdet42374", "host": "Österreichischen Gesellschaft für Politische Bildung", "category": "pol_education", "reccuring": "one_time" }, "geometry": { "type": "Point", "coordinates": [ 16.375650181490062, 48.192449380492157 ] } },
{ "type": "Feature", "properties": { "id": 300820, "timestamp_start": "2025-06-01", "timestamp_end": "2027-06-01", "title": "Caritas Workshops Demokratiekultur", "description": "In den Workshops zu Demokratiekultur und Medienkompetenzen vermittelt Missing Link geflüchteten Jugendlichen Möglichkeiten und Grenzen der Demokratie, klärt auf über das politische Leben und Partizipation in Österreich, über Gleichberechtigung in Familie und Partnerschaft sowie über den Umgang mit sozialen Medien. Im Fokus steht die Vermittlung grundlegenden Wissens über Gesellschaft in Österreich. Demokratiekultur und Meinungsfreiheit, aber auch deren Grenzen, sollen durch einen gemeinsamen, geschützten Diskussionsrahmen erfahrbar gemacht werden.", "weblink": "https://www.caritas-wien.at/hilfe-angebote/asyl-integration/miteinander/aktuelle-projekte/workshops-demokratiekultur/", "host": "Caritas der Erzdiözese Wien", "category": "workshop", "reccuring": "monthly" }, "geometry": { "type": "Point", "coordinates": [ 16.365286036584035, 48.249999349723616 ] } },
{ "type": "Feature", "properties": { "id": 300830, "timestamp_start": "2025-06-14", "timestamp_end": "2025-06-14", "title": "Regenbogenparade 2025 (Vienna Pride Parade)", "description": "The Regenbogenparade (Vienna Pride Parade) on 14 June 2025 is the largest annual political demonstration of the LGBTIQ community in Austria, where LGBTQ+ individuals and allies march for acceptance and equal rights. Hosted by HOSI Wien (Vienna Pride), participants are encouraged to join with banners and posters to voice their demands for respect and equality.", "weblink": "https://viennapride.at/regenbogenparade/", "host": "HOSI Wien (Vienna Pride)", "category": "protest", "reccuring": "one_time" }, "geometry": { "type": "Point", "coordinates": [ 16.3542, 48.2065 ] } },
{ "type": "Feature", "properties": { "id": 300832, "timestamp_start": "2025-05-15", "timestamp_end": "2025-06-26", "title": "Salon Servus (Social Gathering for Seniors)", "description": "Salon Servus is a free social gathering for residents age 60+ in Donaustadt, organized by Gebietsbetreuung Stadterneuerung. Held every two weeks (Thursday mornings), it offers games and group activities to foster neighborhood connections and community networks. The meetings are open to all seniors and strengthen communal ties in a relaxed atmosphere.", "weblink": "https://www.gbstern.at/themen-projekte/salon-servus/", "host": "Gebietsbetreuung Stadterneuerung", "category": "workshop", "reccuring": "weekly" }, "geometry": { "type": "Point", "coordinates": [ 16.4350, 48.2430 ] } },
{ "type": "Feature", "properties": { "id": 300833, "timestamp_start": "2025-06-26", "timestamp_end": "2025-06-26", "title": "Repaircafé – 48er-Tandler Margareten", "description": "The 48er-Tandler Margareten hosts a free Repair Café on 26 June 2025 (14:00–18:00), where volunteers repair small broken electrical appliances and textiles for patrons. This event promotes circular economy and resource reuse, requiring prior sign-up for electronics repairs. It is organized by the city’s MA 48 (Wiener Altwarenmarkt) and open to all.", "weblink": "https://48ertandler.wien.gv.at/Veranstaltung/repaircafe-juni/", "host": "MA 48 (Wiener Altwarenmarkt)", "category": "workshop", "reccuring": "one_time" }, "geometry": { "type": "Point", "coordinates": [ 16.3570, 48.1890 ] } },
{ "type": "Feature", "properties": { "id": 300835, "timestamp_start": "2025-06-20", "timestamp_end": "2025-06-20", "title": "Mahnwache am Ballhausplatz", "description": "A vigil ('Mahnwache') for refugees is scheduled for 20 June 2025 (10:00–14:00) at Ballhausplatz, organized by Omas gegen Rechts. The silent demonstration, titled 'für Menschen in den Elendslagern am Rande Europas,' draws attention to the plight of refugees in camps at Europe’s borders and calls for humane policies.", "weblink": "https://omasgegenrechts.at/veranstaltung/mahnwache-4/2025-06-20/", "host": "Omas gegen Rechts", "category": "protest", "reccuring": "one_time" }, "geometry": { "type": "Point", "coordinates": [ 16.3640, 48.2080 ] } },
{ "type": "Feature", "properties": { "id": 300836, "timestamp_start": "2025-06-12", "timestamp_end": "2025-06-14", "title": "Vienna Pride Village 2025", "description": "From 12–14 June 2025, Rathausplatz will host the Vienna Pride Village, a major community festival featuring LGBTIQ information booths, cultural activities, artist performances and discussions. Organized by Vienna Pride (HOSI Wien), it offers a vibrant public space to celebrate diversity, exchange experiences, and promote LGBTIQ inclusion and acceptance", "weblink": "https://viennapride.at/en/pride-village/", "host": "HOSI Wien (Vienna Pride)", "category": "participation", "reccuring": "one_time" }, "geometry": { "type": "Point", "coordinates": [ 16.3542, 48.2065 ] } },
{ "type": "Feature", "properties": { "id": 300837, "timestamp_start": "2025-06-29", "timestamp_end": "2025-06-29", "title": "Volxküche Ottakring-Hernals (June)", "description": "The Volxküche Ottakring-Hernals is a monthly free community kitchen held at volx*club Ottakring (Familienplatz 6). On 29 June 2025 (11:30–14:00), it will serve free vegan meals, coffee and tea to guests. The event aims to bring neighbors together—sharing food, conversation and games in a welcoming atmosphere with KPÖ activists.", "weblink": "https://volx-club.at/kalender/volxkueche-warmes-essen-gegen-soziale-kaelte-16/", "host": "KPÖ Ottakring-Hernals / volx*club Ottakring", "category": "participation", "reccuring": "one_time" }, "geometry": { "type": "Point", "coordinates": [ 16.3370, 48.2030 ] } },
{ "type": "Feature", "properties": { "id": 300838, "timestamp_start": "2025-07-27", "timestamp_end": "2025-07-27", "title": "Volxküche Ottakring-Hernals (July)", "description": "The Volxküche (Ottakring-Hernals) continues on 27 July 2025 (11:30–14:00) at the volx*club. This free community kitchen provides hot vegan meals and refreshments, encouraging locals to meet and socialize in an inclusive community setting.", "weblink": "https://volx-club.at/kalender/volxkueche-warmes-essen-gegen-soziale-kaelte-17/", "host": "KPÖ Ottakring-Hernals / volx*club Ottakring", "category": "participation", "reccuring": "one_time" }, "geometry": { "type": "Point", "coordinates": [ 16.3370, 48.2030 ] } },
{ "type": "Feature", "properties": { "id": 300839, "timestamp_start": "2025-08-31", "timestamp_end": "2025-08-31", "title": "Volxküche Ottakring-Hernals (August)", "description": "The Volxküche (Ottakring-Hernals) is held again on 31 August 2025 (11:30–14:00) at volx*club Ottakring. It offers free communal meals and beverages to foster social connections, welcoming all community members to join the inclusive gathering", "weblink": "https://volx-club.at/kalender/volxkueche-warmes-essen-gegen-soziale-kaelte-18/", "host": "KPÖ Ottakring-Hernals / volx*club Ottakring", "category": "participation", "reccuring": "one_time" }, "geometry": { "type": "Point", "coordinates": [ 16.3370, 48.2030 ] } }
]
}
