{
"type": "FeatureCollection",
"name": "events_new",
"crs": { "type": "name", "properties": { "name": "urn:ogc:def:crs:OGC:1.3:CRS84" } },
"features": [
{ "type": "Feature", "properties": { "id": 1625380, "timestamp_start": "2004-12-31", "timestamp_end": "2030-12-31", "title": "Grätzelbeirat Volkert- und Alliiertenviertel", "description": null, "weblink": "http://www.wiengestalten.at/graetzelbeirat-volkert-und-alliiertenviertel/", "host": "GB* 2/20", "category": "initiative", "reccuring": "initiative" }, "geometry": { "type": "Point", "coordinates": [ 16.38645468, 48.22333366 ] } },
{ "type": "Feature", "properties": { "id": 1625383, "timestamp_start": "2010-12-31", "timestamp_end": "2030-12-31", "title": "Garteln ums Eck", "description": null, "weblink": "http://www.wiengestalten.at/garteln-ums-eck/", "host": "GB*6/14/15", "category": "initiative", "reccuring": "initiative" }, "geometry": { "type": "Point", "coordinates": [ 16.37998824, 48.20229622 ] } },
{ "type": "Feature", "properties": { "id": 1625384, "timestamp_start": "2010-12-31", "timestamp_end": "2030-12-31", "title": "Garteln ums Eck", "description": null, "weblink": "http://www.wiengestalten.at/garteln-ums-eck/", "host": "GB*6/14/15", "category": "initiative", "reccuring": "initiative" }, "geometry": { "type": "Point", "coordinates": [ 16.37998824, 48.20229622 ] } },
{ "type": "Feature", "properties": { "id": 1625388, "timestamp_start": "2009-12-31", "timestamp_end": "2030-12-31", "title": "Stadtteilnetzwerk Stadlau", "description": null, "weblink": "http://www.wiengestalten.at/stadtteilnetzwerk-stadlau/", "host": "Lokale Agenda Donaustadt", "category": "initiative", "reccuring": "initiative" }, "geometry": { "type": "Point", "coordinates": [ 16.45619566, 48.22901164 ] } },
{ "type": "Feature", "properties": { "id": 1625389, "timestamp_start": "2012-05-31", "timestamp_end": "2030-12-31", "title": "Gemeinschaftsgärten Tigerpark und Pfeilheim", "description": null, "weblink": "http://www.wiengestalten.at/gemeinschaftsgaerten-im-tigerpark-und-vor-dem-pfeilheim/", "host": "Lokale Agenda Josefstadt", "category": "initiative", "reccuring": "initiative" }, "geometry": { "type": "Point", "coordinates": [ 16.34532106, 48.20882091 ] } },
{ "type": "Feature", "properties": { "id": 1625390, "timestamp_start": "2012-05-31", "timestamp_end": "2030-12-31", "title": "Gemeinschaftsgärten Tigerpark und Pfeilheim", "description": null, "weblink": "http://www.wiengestalten.at/gemeinschaftsgaerten-im-tigerpark-und-vor-dem-pfeilheim/", "host": "Lokale Agenda Josefstadt", "category": "initiative", "reccuring": "initiative" }, "geometry": { "type": "Point", "coordinates": [ 16.34532106, 48.20882091 ] } },
{ "type": "Feature", "properties": { "id": 1625391, "timestamp_start": "2010-12-31", "timestamp_end": "2030-12-31", "title": "Äußere Liechtensteinstraße", "description": null, "weblink": "http://www.wiengestalten.at/aeussere-liechtensteinstrasse/", "host": "Lokale Agenda Alsergrund", "category": "initiative", "reccuring": "initiative" }, "geometry": { "type": "Point", "coordinates": [ 16.35435541, 48.22587481 ] } },
{ "type": "Feature", "properties": { "id": 1625392, "timestamp_start": "2010-12-31", "timestamp_end": "2030-12-31", "title": "Äußere Liechtensteinstraße", "description": null, "weblink": "http://www.wiengestalten.at/aeussere-liechtensteinstrasse/", "host": "Lokale Agenda Alsergrund", "category": "initiative", "reccuring": "initiative" }, "geometry": { "type": "Point", "coordinates": [ 16.35435541, 48.22587481 ] } },
{ "type": "Feature", "properties": { "id": 1625394, "timestamp_start": "2011-09-30", "timestamp_end": "2030-12-31", "title": "Lebensraum Lange Gasse", "description": null, "weblink": "http://www.wiengestalten.at/lebensraum-lange-gasse/", "host": "Lokale Agenda Josefstadt", "category": "initiative", "reccuring": "initiative" }, "geometry": { "type": "Point", "coordinates": [ 16.3517211, 48.21046391 ] } },
{ "type": "Feature", "properties": { "id": 1625405, "timestamp_start": "2009-12-31", "timestamp_end": "2030-12-31", "title": "Word up! 20", "description": null, "weblink": "http://www.wiengestalten.at/word-up-20/", "host": "Jugendzentrum BasE 20", "category": "initiative", "reccuring": "initiative" }, "geometry": { "type": "Point", "coordinates": [ 16.38296208, 48.24169764 ] } },
{ "type": "Feature", "properties": { "id": 1625406, "timestamp_start": "2009-12-31", "timestamp_end": "2030-12-31", "title": "Kinder- und Jugendparlament Währing", "description": null, "weblink": "http://www.wiengestalten.at/kinder-und-jugendparlament-waehring/", "host": "Wiener Familienbund", "category": "initiative", "reccuring": "initiative" }, "geometry": { "type": "Point", "coordinates": [ 16.34166956, 48.22208459 ] } },
{ "type": "Feature", "properties": { "id": 1625407, "timestamp_start": "2005-12-31", "timestamp_end": "2030-12-31", "title": "Ottakringer SchülerInnenparlament", "description": null, "weblink": "http://www.wiengestalten.at/ottakringer-schuelerinnenparlament/", "host": "Take Part!", "category": "initiative", "reccuring": "initiative" }, "geometry": { "type": "Point", "coordinates": [ 16.30622997, 48.21338054 ] } },
{ "type": "Feature", "properties": { "id": 1625395, "timestamp_start": "2011-09-30", "timestamp_end": "2030-12-31", "title": "Lebensraum Lange Gasse", "description": null, "weblink": "http://www.wiengestalten.at/lebensraum-lange-gasse/", "host": "Lokale Agenda Josefstadt", "category": "initiative", "reccuring": "initiative" }, "geometry": { "type": "Point", "coordinates": [ 16.3517211, 48.21046391 ] } },
{ "type": "Feature", "properties": { "id": 1625396, "timestamp_start": "2004-12-31", "timestamp_end": "2030-12-31", "title": "Attraktivierung des Kutschkermarktes", "description": null, "weblink": "http://www.wiengestalten.at/attraktivierung-des-kutschkermarktes/", "host": "GB*9/17/18", "category": "initiative", "reccuring": "initiative" }, "geometry": { "type": "Point", "coordinates": [ 16.34474747, 48.22556334 ] } },
{ "type": "Feature", "properties": { "id": 1625397, "timestamp_start": "2003-12-31", "timestamp_end": "2030-12-31", "title": "Word up! 23", "description": null, "weblink": "http://www.wiengestalten.at/word-up-23/", "host": "Jugendzentrum Alterlaa", "category": "initiative", "reccuring": "initiative" }, "geometry": { "type": "Point", "coordinates": [ 16.28215297, 48.13486362 ] } },
{ "type": "Feature", "properties": { "id": 1625398, "timestamp_start": "2010-12-31", "timestamp_end": "2030-12-31", "title": "Word Up! 21", "description": null, "weblink": "http://www.wiengestalten.at/word-up-21/", "host": "Jugendzentrum Großfeldsiedlung Nautilus", "category": "initiative", "reccuring": "initiative" }, "geometry": { "type": "Point", "coordinates": [ 16.45359803, 48.26775145 ] } },
{ "type": "Feature", "properties": { "id": 1625401, "timestamp_start": "2011-12-31", "timestamp_end": "2030-12-31", "title": "Neugestaltung Schönbornpark", "description": null, "weblink": "http://www.wiengestalten.at/neugestaltung-schoenbornpark/", "host": "Bezirksvorstehung Josefstadt", "category": "initiative", "reccuring": "initiative" }, "geometry": { "type": "Point", "coordinates": [ 16.35144501, 48.21229622 ] } },
{ "type": "Feature", "properties": { "id": 1625402, "timestamp_start": "2011-12-31", "timestamp_end": "2030-12-31", "title": "Neugestaltung Schönbornpark", "description": null, "weblink": "http://www.wiengestalten.at/neugestaltung-schoenbornpark/", "host": "Bezirksvorstehung Josefstadt", "category": "initiative", "reccuring": "initiative" }, "geometry": { "type": "Point", "coordinates": [ 16.35144501, 48.21229622 ] } },
{ "type": "Feature", "properties": { "id": 1625409, "timestamp_start": "2002-12-31", "timestamp_end": "2030-12-31", "title": "Kinder- und Jugendparlament Penzing", "description": null, "weblink": "http://www.wiengestalten.at/kinder-und-jugendparlament-penzing/", "host": "Kiddy &Co", "category": "initiative", "reccuring": "initiative" }, "geometry": { "type": "Point", "coordinates": [ 16.30919382, 48.19604072 ] } },
{ "type": "Feature", "properties": { "id": 1625410, "timestamp_start": "2005-12-31", "timestamp_end": "2030-12-31", "title": "Kinder- und Jugendparlament Hietzing", "description": null, "weblink": "http://www.wiengestalten.at/kinder-und-jugendparlament-hietzing/", "host": "Wiener Familienbund", "category": "initiative", "reccuring": "initiative" }, "geometry": { "type": "Point", "coordinates": [ 16.29982026, 48.187931 ] } },
{ "type": "Feature", "properties": { "id": 1625411, "timestamp_start": "2005-12-31", "timestamp_end": "2030-12-31", "title": "Kinder- und Jugendbeirat Meidling", "description": null, "weblink": "http://www.wiengestalten.at/kinder-und-jugendbeirat-meidling/", "host": "JIM Jugend In Meidling", "category": "initiative", "reccuring": "initiative" }, "geometry": { "type": "Point", "coordinates": [ 16.32916328, 48.18311847 ] } },
{ "type": "Feature", "properties": { "id": 1625412, "timestamp_start": "2000-12-31", "timestamp_end": "2030-12-31", "title": "Word up! 11", "description": null, "weblink": "http://www.wiengestalten.at/word-up-11/", "host": "Siedlungstreff Leberberg", "category": "initiative", "reccuring": "initiative" }, "geometry": { "type": "Point", "coordinates": [ 16.45927326, 48.15484656 ] } },
{ "type": "Feature", "properties": { "id": 1625413, "timestamp_start": "2000-12-31", "timestamp_end": "2030-12-31", "title": "Word up! 09", "description": null, "weblink": "http://www.wiengestalten.at/word-up-09/", "host": "Zentrum 9", "category": "initiative", "reccuring": "initiative" }, "geometry": { "type": "Point", "coordinates": [ 16.35426867, 48.22072856 ] } },
{ "type": "Feature", "properties": { "id": 1625414, "timestamp_start": "2004-12-31", "timestamp_end": "2030-12-31", "title": "SchülerInnen- und Jugendparlament Josefstadt", "description": null, "weblink": "http://www.wiengestalten.at/schuelerinnen-und-jugendparlament-josefstadt/", "host": "Jugendparlament Josefstadt", "category": "initiative", "reccuring": "initiative" }, "geometry": { "type": "Point", "coordinates": [ 16.34721795, 48.2109774 ] } },
{ "type": "Feature", "properties": { "id": 1625415, "timestamp_start": "2001-12-31", "timestamp_end": "2030-12-31", "title": "Ich mach&#8216; mit in Neubau!", "description": null, "weblink": "http://www.wiengestalten.at/ich-mach-mit-in-neubau/", "host": "Take Part!", "category": "initiative", "reccuring": "initiative" }, "geometry": { "type": "Point", "coordinates": [ 16.34704265, 48.20284971 ] } },
{ "type": "Feature", "properties": { "id": 1625416, "timestamp_start": "1997-12-31", "timestamp_end": "2030-12-31", "title": "SchülerInnenparlament Mariahilf", "description": null, "weblink": "http://www.wiengestalten.at/schuelerinnenparlament-mariahilf/", "host": "JUVIVO6", "category": "initiative", "reccuring": "initiative" }, "geometry": { "type": "Point", "coordinates": [ 16.35091358, 48.19706869 ] } },
{ "type": "Feature", "properties": { "id": 1625417, "timestamp_start": "1998-12-31", "timestamp_end": "2030-12-31", "title": "SchülerInnenparlament Margareten", "description": null, "weblink": "http://www.wiengestalten.at/schuelerinnenparlament-margareten/", "host": "IFEP – Institut für Erlebnispädagogik", "category": "initiative", "reccuring": "initiative" }, "geometry": { "type": "Point", "coordinates": [ 16.35419306, 48.19056413 ] } },
{ "type": "Feature", "properties": { "id": 1625418, "timestamp_start": "2012-01-31", "timestamp_end": "2030-12-31", "title": "Fasanmarkt", "description": null, "weblink": "http://www.wiengestalten.at/bauernmarkt-agendagruppe-fasanmarkt/", "host": "ARGE Fasanmarkt", "category": "initiative", "reccuring": "initiative" }, "geometry": { "type": "Point", "coordinates": [ 16.3870557, 48.19453432 ] } },
{ "type": "Feature", "properties": { "id": 1625419, "timestamp_start": "2000-12-31", "timestamp_end": "2030-12-31", "title": "SchülerInnenparlament Landstraße", "description": null, "weblink": "http://www.wiengestalten.at/schuelerinnenparlament-landstrasse/", "host": "JUVIVO.03", "category": "initiative", "reccuring": "initiative" }, "geometry": { "type": "Point", "coordinates": [ 16.40483302, 48.19673705 ] } },
{ "type": "Feature", "properties": { "id": 1625420, "timestamp_start": "1999-12-31", "timestamp_end": "2030-12-31", "title": "Kinder- und Jugendparlament Innere Stadt", "description": null, "weblink": "http://www.wiengestalten.at/kinder-und-jugendparlament-innere-stadt/", "host": "Wiener Familienbund", "category": "initiative", "reccuring": "initiative" }, "geometry": { "type": "Point", "coordinates": [ 16.37102527, 48.21180622 ] } },
{ "type": "Feature", "properties": { "id": 1625476, "timestamp_start": "2011-04-30", "timestamp_end": "2030-12-31", "title": "Gemeinschaftsgarten Norweger Viertel", "description": null, "weblink": "http://www.wiengestalten.at/gemeinschaftsgarten-norweger-viertel/", "host": "Lokale Agenda Donaustadt", "category": "initiative", "reccuring": "initiative" }, "geometry": { "type": "Point", "coordinates": [ 16.47547081, 48.21345252 ] } },
{ "type": "Feature", "properties": { "id": 1625477, "timestamp_start": "2011-04-30", "timestamp_end": "2030-12-31", "title": "Gemeinschaftsgarten Norweger Viertel", "description": null, "weblink": "http://www.wiengestalten.at/gemeinschaftsgarten-norweger-viertel/", "host": "Lokale Agenda Donaustadt", "category": "initiative", "reccuring": "initiative" }, "geometry": { "type": "Point", "coordinates": [ 16.47547081, 48.21345252 ] } },
{ "type": "Feature", "properties": { "id": 1625478, "timestamp_start": "2014-06-30", "timestamp_end": "2030-12-31", "title": "Initiative Schwendermarkt", "description": null, "weblink": "http://schwendermarkt.at/", "host": "Axel Hak", "category": "initiative", "reccuring": "initiative" }, "geometry": { "type": "Point", "coordinates": [ 16.3267186, 48.19109086 ] } },
{ "type": "Feature", "properties": { "id": 1625482, "timestamp_start": "2016-12-31", "timestamp_end": "2030-12-31", "title": "Lokale Agenda 21", "description": null, "weblink": "http://www.la21wien.at/", "host": "Andrea Binder-Zehetner", "category": "initiative", "reccuring": "initiative" }, "geometry": { "type": "Point", "coordinates": [ 16.35819367, 48.19486976 ] } },
{ "type": "Feature", "properties": { "id": 1625483, "timestamp_start": "2014-12-31", "timestamp_end": "2030-12-31", "title": "Agenda Wieden", "description": null, "weblink": "http://www.agendawieden.at/home.html", "host": "Milena Schnee", "category": "initiative", "reccuring": "initiative" }, "geometry": { "type": "Point", "coordinates": [ 16.36658394, 48.19209379 ] } },
{ "type": "Feature", "properties": { "id": 1625484, "timestamp_start": "2014-12-31", "timestamp_end": "2030-12-31", "title": "Agenda Josefstadt", "description": null, "weblink": "http://www.agendajosefstadt.at/home.html", "host": "Peter Kühnberger", "category": "initiative", "reccuring": "initiative" }, "geometry": { "type": "Point", "coordinates": [ 16.35094672, 48.20844683 ] } },
{ "type": "Feature", "properties": { "id": 1625485, "timestamp_start": "2014-12-31", "timestamp_end": "2030-12-31", "title": "Agenda Alsergrund", "description": null, "weblink": "http://www.agendaalsergrund.at/home.html", "host": "Liette Clees", "category": "initiative", "reccuring": "initiative" }, "geometry": { "type": "Point", "coordinates": [ 16.35435541, 48.22587481 ] } },
{ "type": "Feature", "properties": { "id": 1625486, "timestamp_start": "2014-12-31", "timestamp_end": "2030-12-31", "title": "Agenda Favoriten", "description": null, "weblink": "http://www.agendafavoriten.at/home.html", "host": "Katja Arzberger", "category": "initiative", "reccuring": "initiative" }, "geometry": { "type": "Point", "coordinates": [ 16.37986587, 48.1723001 ] } },
{ "type": "Feature", "properties": { "id": 1625487, "timestamp_start": "2014-12-31", "timestamp_end": "2030-12-31", "title": "Agenda Währing", "description": null, "weblink": "https://www.agendawaehring.at/home.html", "host": "Anna Sonnleitner", "category": "initiative", "reccuring": "initiative" }, "geometry": { "type": "Point", "coordinates": [ 16.33349688, 48.22564014 ] } },
{ "type": "Feature", "properties": { "id": 1625488, "timestamp_start": "2014-12-31", "timestamp_end": "2030-12-31", "title": "Agenda Donaustadt", "description": null, "weblink": "http://www.agendadonaustadt.at/home.html", "host": "Irmgard Hitthaler", "category": "initiative", "reccuring": "initiative" }, "geometry": { "type": "Point", "coordinates": [ 16.36658394, 48.19209379 ] } },
{ "type": "Feature", "properties": { "id": 1625490, "timestamp_start": "2018-05-02", "timestamp_end": "2030-12-31", "title": "Schutzzone \"Floridsdorfer Spitz\"", "description": null, "weblink": "https://www.wien.gv.at/stadtentwicklung/projekte/index.html", "host": "Lisa Pfalzer", "category": "initiative", "reccuring": "initiative" }, "geometry": { "type": "Point", "coordinates": [ 16.40174704, 48.25869402 ] } },
{ "type": "Feature", "properties": { "id": 1625492, "timestamp_start": "2018-06-05", "timestamp_end": "2030-12-31", "title": "Informationsveranstaltung Mackgasse/Gräfin-Zichy-S", "description": null, "weblink": "https://www.wien.gv.at/verkehr-stadtentwicklung/", "host": "Lisa Pfalzer", "category": "initiative", "reccuring": "initiative" }, "geometry": { "type": "Point", "coordinates": [ 16.24794385, 48.1366649 ] } },
{ "type": "Feature", "properties": { "id": 1625495, "timestamp_start": "2018-09-09", "timestamp_end": "2030-12-31", "title": "Gasometervorfeld 2.0", "description": null, "weblink": "https://www.marx.at/", "host": "Lisa Pfalzer", "category": "initiative", "reccuring": "initiative" }, "geometry": { "type": "Point", "coordinates": [ 16.40421714, 48.18866373 ] } },
{ "type": "Feature", "properties": { "id": 1625496, "timestamp_start": "2018-09-19", "timestamp_end": "2030-12-31", "title": "Rotenturmstraße Neu", "description": null, "weblink": "http://www.aula-wien.at/", "host": "Clarissa Knehs", "category": "initiative", "reccuring": "initiative" }, "geometry": { "type": "Point", "coordinates": [ 16.37767746, 48.20834855 ] } },
{ "type": "Feature", "properties": { "id": 1625497, "timestamp_start": "2018-10-03", "timestamp_end": "2030-12-31", "title": "Nordbahnviertel", "description": null, "weblink": "www.wien.gv.at/stadtentwicklung/projekte/nordbahnhof", "host": "Lisa Pfalzer", "category": "initiative", "reccuring": "initiative" }, "geometry": { "type": "Point", "coordinates": [ 16.39395495, 48.22881056 ] } },
{ "type": "Feature", "properties": { "id": 1625502, "timestamp_start": "2018-12-02", "timestamp_end": "2030-12-31", "title": "Rotenturmstraße Neu", "description": null, "weblink": "http://www.aula-wien.at/", "host": "Lisa- Magdalena Schlager", "category": "initiative", "reccuring": "initiative" }, "geometry": { "type": "Point", "coordinates": [ 16.37767746, 48.20834855 ] } },
{ "type": "Feature", "properties": { "id": 1625508, "timestamp_start": "2014-02-28", "timestamp_end": "2030-02-28", "title": "Initiative Schwendermarkt", "description": null, "weblink": "http://schwendermarkt.at", "host": "Dipl.Ing. A. Haak", "category": "initiative", "reccuring": "initiative" }, "geometry": { "type": "Point", "coordinates": [ 16.3267186, 48.19109086 ] } },
{ "type": "Feature", "properties": { "id": 1625425, "timestamp_start": "2009-12-31", "timestamp_end": "2030-12-31", "title": "Agendagruppe &#8222;Buntes Weißgerbergrätzl&#8220;", "description": null, "weblink": "http://www.wiengestalten.at/agendagruppe-buntes-weissgerbergraetzl/", "host": "Lokale Agenda Landstraße", "category": "initiative", "reccuring": "initiative" }, "geometry": { "type": "Point", "coordinates": [ 16.38649469, 48.1993525 ] } },
{ "type": "Feature", "properties": { "id": 1625427, "timestamp_start": "2011-12-31", "timestamp_end": "2030-12-31", "title": "Ein offenes Ohr für Monte Laa", "description": null, "weblink": "http://www.wiengestalten.at/ein-offenes-ohr-fuer-monte-laa/", "host": "GB*10", "category": "initiative", "reccuring": "initiative" }, "geometry": { "type": "Point", "coordinates": [ 16.4128219, 48.14069402 ] } },
{ "type": "Feature", "properties": { "id": 1625428, "timestamp_start": "2011-12-31", "timestamp_end": "2030-12-31", "title": "Nordbahnvierteltreff", "description": null, "weblink": "http://www.wiengestalten.at/nordbahnvierteltreff/", "host": "GB*STM Nordbahnviertel", "category": "initiative", "reccuring": "initiative" }, "geometry": { "type": "Point", "coordinates": [ 16.39689144, 48.2231495 ] } },
{ "type": "Feature", "properties": { "id": 1625429, "timestamp_start": "2011-12-31", "timestamp_end": "2030-12-31", "title": "Nordbahnvierteltreff", "description": null, "weblink": "http://www.wiengestalten.at/nordbahnvierteltreff/", "host": "GB*STM Nordbahnviertel", "category": "initiative", "reccuring": "initiative" }, "geometry": { "type": "Point", "coordinates": [ 16.39689144, 48.2231495 ] } },
{ "type": "Feature", "properties": { "id": 1625438, "timestamp_start": "2012-02-29", "timestamp_end": "2030-12-31", "title": "Wiener Charta des Zusammenlebens", "description": null, "weblink": "http://www.wiengestalten.at/wiener-charta-des-zusammenlebens/", "host": null, "category": "initiative", "reccuring": "initiative" }, "geometry": { "type": "Point", "coordinates": [ 16.35505735, 48.21031583 ] } },
{ "type": "Feature", "properties": { "id": 1625443, "timestamp_start": "2001-12-31", "timestamp_end": "2030-12-31", "title": "Rein ins Rathaus – Kinderstadt", "description": null, "weblink": "http://www.wiengestalten.at/rein-ins-rathaus-kinderstadt/", "host": "wienXtra – ferienspiel", "category": "initiative", "reccuring": "initiative" }, "geometry": { "type": "Point", "coordinates": [ 16.35513238, 48.21125678 ] } },
{ "type": "Feature", "properties": { "id": 1625444, "timestamp_start": "2010-11-29", "timestamp_end": "2030-12-31", "title": "Gov2.0 Camp", "description": null, "weblink": "http://www.wiengestalten.at/gov20-camp/", "host": "Dialog Plus", "category": "initiative", "reccuring": "initiative" }, "geometry": { "type": "Point", "coordinates": [ 16.33758451, 48.24620191 ] } },
{ "type": "Feature", "properties": { "id": 1625449, "timestamp_start": "2000-12-31", "timestamp_end": "2030-12-31", "title": "Word Up! 02", "description": null, "weblink": "http://www.wiengestalten.at/word-up-02/", "host": "Verein Wiener Jugendzentren", "category": "initiative", "reccuring": "initiative" }, "geometry": { "type": "Point", "coordinates": [ 16.37972346, 48.21651219 ] } },
{ "type": "Feature", "properties": { "id": 1625450, "timestamp_start": "2009-12-31", "timestamp_end": "2030-12-31", "title": "SiP – SchülerInnen Parlament", "description": null, "weblink": "http://www.wiengestalten.at/sip-schuelerinnen-parlament/", "host": "Wiener Landesschülervertretung", "category": "initiative", "reccuring": "initiative" }, "geometry": { "type": "Point", "coordinates": [ 16.35604106, 48.21103683 ] } },
{ "type": "Feature", "properties": { "id": 1625329, "timestamp_start": "2010-12-31", "timestamp_end": "2030-12-31", "title": "SUM – Konferenz", "description": null, "weblink": "http://www.wiengestalten.at/sum-konferenz/", "host": "Büro Plansinn - DI Maja Vilotijevic", "category": "initiative", "reccuring": "initiative" }, "geometry": { "type": "Point", "coordinates": [ 16.35691164, 48.21210714 ] } },
{ "type": "Feature", "properties": { "id": 1625330, "timestamp_start": "2010-12-31", "timestamp_end": "2030-12-31", "title": "SUM – Konferenz", "description": null, "weblink": "http://www.wiengestalten.at/sum-konferenz/", "host": "Büro Plansinn - DI Maja Vilotijevic", "category": "initiative", "reccuring": "initiative" }, "geometry": { "type": "Point", "coordinates": [ 16.35691164, 48.21210714 ] } },
{ "type": "Feature", "properties": { "id": 1625332, "timestamp_start": "1997-12-31", "timestamp_end": "2030-12-31", "title": "einfach &#8211; mehrfach", "description": null, "weblink": "http://www.wiengestalten.at/einfach-mehrfach/", "host": "MA 18 - Stadtentwicklung und Stadtplanung", "category": "initiative", "reccuring": "initiative" }, "geometry": { "type": "Point", "coordinates": [ 16.35691164, 48.21210714 ] } },
{ "type": "Feature", "properties": { "id": 1625333, "timestamp_start": "1997-12-31", "timestamp_end": "2030-12-31", "title": "einfach &#8211; mehrfach", "description": null, "weblink": "http://www.wiengestalten.at/einfach-mehrfach/", "host": "MA 18 - Stadtentwicklung und Stadtplanung", "category": "initiative", "reccuring": "initiative" }, "geometry": { "type": "Point", "coordinates": [ 16.35691164, 48.21210714 ] } },
{ "type": "Feature", "properties": { "id": 1625339, "timestamp_start": "2011-03-14", "timestamp_end": "2030-12-31", "title": "Bauernmarkt Stadlau", "description": null, "weblink": "http://www.wiengestalten.at/bauernmarkt-stadlau/", "host": "Lokale Agenda Donaustadt", "category": "initiative", "reccuring": "initiative" }, "geometry": { "type": "Point", "coordinates": [ 16.45131636, 48.22434727 ] } },
{ "type": "Feature", "properties": { "id": 1625347, "timestamp_start": "2009-12-31", "timestamp_end": "2030-12-31", "title": "KAESCH &#8211; Netzwerk für Nachbarschaftshilfe", "description": null, "weblink": "http://www.wiengestalten.at/kaesch-netzwerk-fuer-nachbarschaftshilfe/", "host": "KAESCH - Netzwerk für Nachbarschaftshilfe", "category": "initiative", "reccuring": "initiative" }, "geometry": { "type": "Point", "coordinates": [ 16.32706035, 48.16092535 ] } },
{ "type": "Feature", "properties": { "id": 1625348, "timestamp_start": "2010-12-31", "timestamp_end": "2030-12-31", "title": "KNH-Kulturnetz Hernals", "description": null, "weblink": "http://www.wiengestalten.at/knh-kulturnetz-hernals/", "host": "KUNST-MACHT Verein für Kunst- und Kulturvermittlung", "category": "initiative", "reccuring": "initiative" }, "geometry": { "type": "Point", "coordinates": [ 16.33227357, 48.21637011 ] } },
{ "type": "Feature", "properties": { "id": 1625354, "timestamp_start": "2007-12-31", "timestamp_end": "2030-12-31", "title": "Nachbarschaftsgarten Heigerlein", "description": null, "weblink": "http://www.wiengestalten.at/nachbarschaftsgarten-heigerlein/", "host": "Verein Gartenpoylog", "category": "initiative", "reccuring": "initiative" }, "geometry": { "type": "Point", "coordinates": [ 16.31210378, 48.21837567 ] } },
{ "type": "Feature", "properties": { "id": 1625355, "timestamp_start": "2007-12-31", "timestamp_end": "2030-12-31", "title": "Nachbarschaftsgarten Heigerlein", "description": null, "weblink": "http://www.wiengestalten.at/nachbarschaftsgarten-heigerlein/", "host": "Verein Gartenpoylog", "category": "initiative", "reccuring": "initiative" }, "geometry": { "type": "Point", "coordinates": [ 16.31210378, 48.21837567 ] } },
{ "type": "Feature", "properties": { "id": 1625358, "timestamp_start": "2006-12-31", "timestamp_end": "2030-12-31", "title": "Grätzelbeirat Stuwerviertel", "description": null, "weblink": "http://www.wiengestalten.at/graetzelbeirat-stuwerviertel/", "host": "GB*2/20", "category": "initiative", "reccuring": "initiative" }, "geometry": { "type": "Point", "coordinates": [ 16.40019842, 48.22076466 ] } },
{ "type": "Feature", "properties": { "id": 1625365, "timestamp_start": "2007-12-31", "timestamp_end": "2030-12-31", "title": "Welt(en)reise &#8211; Interkultureller Dialog", "description": null, "weblink": "http://www.wiengestalten.at/weltenreise-unterkultureller-dialog/", "host": "Lokale Agenda Landstraße", "category": "initiative", "reccuring": "initiative" }, "geometry": { "type": "Point", "coordinates": [ 16.38648462, 48.19918711 ] } },
{ "type": "Feature", "properties": { "id": 1625368, "timestamp_start": "2010-12-31", "timestamp_end": "2030-12-31", "title": "Zaubergarden", "description": null, "weblink": "http://www.wiengestalten.at/zaubergarden/", "host": "Lokale Agenda Liesing", "category": "initiative", "reccuring": "initiative" }, "geometry": { "type": "Point", "coordinates": [ 16.25761317, 48.13575673 ] } },
{ "type": "Feature", "properties": { "id": 1625369, "timestamp_start": "2010-12-31", "timestamp_end": "2030-12-31", "title": "Zaubergarden", "description": null, "weblink": "http://www.wiengestalten.at/zaubergarden/", "host": "Lokale Agenda Liesing", "category": "initiative", "reccuring": "initiative" }, "geometry": { "type": "Point", "coordinates": [ 16.25761317, 48.13575673 ] } },
{ "type": "Feature", "properties": { "id": 1625370, "timestamp_start": "2010-02-28", "timestamp_end": "2030-12-31", "title": "Kunstplatzl im 3.", "description": null, "weblink": "http://www.wiengestalten.at/kunstplatzl-im-3/", "host": "Lokale Agenda Landstraße", "category": "initiative", "reccuring": "initiative" }, "geometry": { "type": "Point", "coordinates": [ 16.38649469, 48.1993525 ] } },
{ "type": "Feature", "properties": { "id": 1625372, "timestamp_start": "2009-12-31", "timestamp_end": "2030-12-31", "title": "Stadterneuerung Arsenal", "description": null, "weblink": "http://www.wiengestalten.at/stadterneuerung-arsenal/", "host": "GB* 3/11", "category": "initiative", "reccuring": "initiative" }, "geometry": { "type": "Point", "coordinates": [ 16.40397653, 48.1960994 ] } },
{ "type": "Feature", "properties": { "id": 1625373, "timestamp_start": "2009-12-31", "timestamp_end": "2030-12-31", "title": "Stadterneuerung Arsenal", "description": null, "weblink": "http://www.wiengestalten.at/stadterneuerung-arsenal/", "host": "GB* 3/11", "category": "initiative", "reccuring": "initiative" }, "geometry": { "type": "Point", "coordinates": [ 16.40397653, 48.1960994 ] } },
{ "type": "Feature", "properties": { "id": 1625374, "timestamp_start": "2009-12-31", "timestamp_end": "2030-12-31", "title": "Mehrwert Sanierungsinitiative in der Kreta", "description": null, "weblink": "http://www.wiengestalten.at/mehrwert-sanierungsinitiative-kreta/", "host": "GB*10", "category": "initiative", "reccuring": "initiative" }, "geometry": { "type": "Point", "coordinates": [ 16.37765883, 48.17509306 ] } },
{ "type": "Feature", "properties": { "id": 1625375, "timestamp_start": "2010-06-30", "timestamp_end": "2030-12-31", "title": "Öffentlicher Raum &#8211; Asphaltpiraten", "description": null, "weblink": "http://www.wiengestalten.at/asphaltpiraten-rueckeroberung-des-oeffentlichen-raumes/", "host": "Lokale Agenda Josefstadt", "category": "initiative", "reccuring": "initiative" }, "geometry": { "type": "Point", "coordinates": [ 16.34416277, 48.2132408 ] } },
{ "type": "Feature", "properties": { "id": 1625376, "timestamp_start": "2009-09-30", "timestamp_end": "2030-12-31", "title": "Zu Fuß und mit dem Rad unterwegs", "description": null, "weblink": "http://www.wiengestalten.at/zu-fuss-und-mit-dem-rad-unterwegs/", "host": "Lokale Agenda Landstraße", "category": "initiative", "reccuring": "initiative" }, "geometry": { "type": "Point", "coordinates": [ 16.38648462, 48.19918711 ] } },
{ "type": "Feature", "properties": { "id": 1625377, "timestamp_start": "2009-09-30", "timestamp_end": "2030-12-31", "title": "Zu Fuß und mit dem Rad unterwegs", "description": null, "weblink": "http://www.wiengestalten.at/zu-fuss-und-mit-dem-rad-unterwegs/", "host": "Lokale Agenda Landstraße", "category": "initiative", "reccuring": "initiative" }, "geometry": { "type": "Point", "coordinates": [ 16.38648462, 48.19918711 ] } },
{ "type": "Feature", "properties": { "id": 1625378, "timestamp_start": "2010-12-31", "timestamp_end": "2030-12-31", "title": "Grätzelbüro-20 Zwischenbrücken", "description": null, "weblink": "http://www.wiengestalten.at/graetzelbuero-20-zwischenbruecken/", "host": "GB*2/20", "category": "initiative", "reccuring": "initiative" }, "geometry": { "type": "Point", "coordinates": [ 16.39913984, 48.22668439 ] } },
{ "type": "Feature", "properties": { "id": 1625379, "timestamp_start": "2004-12-31", "timestamp_end": "2030-12-31", "title": "Grätzelbeirat Volkert- und Alliiertenviertel", "description": null, "weblink": "http://www.wiengestalten.at/graetzelbeirat-volkert-und-alliiertenviertel/", "host": "GB* 2/20", "category": "initiative", "reccuring": "initiative" }, "geometry": { "type": "Point", "coordinates": [ 16.38645468, 48.22333366 ] } },
{ "type": "Feature", "properties": { "id": 1624540, "timestamp_start": "2014-06-23", "timestamp_end": "2030-12-31", "title": "Wohnprojekt Emil-Behring-Weg", "description": null, "weblink": "http://www.wiengestalten.at/wohnprojekt-europan-10/", "host": "Anita Haider, Magistratsabteilung 21", "category": "initiative", "reccuring": "initiative" }, "geometry": { "type": "Point", "coordinates": [ 16.29397675, 48.15991681 ] } },
{ "type": "Feature", "properties": { "id": 1624541, "timestamp_start": "2015-11-28", "timestamp_end": "2030-12-31", "title": "Oase 22 &#8211; Adelheid-Popp-Gasse", "description": null, "weblink": "http://www.wiengestalten.at/oase-22-adelheid-popp-gasse/", "host": "Magistratsabteilung 18 Stadtentwicklung und Stadtplanung", "category": "initiative", "reccuring": "initiative" }, "geometry": { "type": "Point", "coordinates": [ 16.4588837, 48.22988126 ] } },
{ "type": "Feature", "properties": { "id": 1624542, "timestamp_start": "2015-11-28", "timestamp_end": "2030-12-31", "title": "Oase 22 &#8211; Adelheid-Popp-Gasse", "description": null, "weblink": "http://www.wiengestalten.at/oase-22-adelheid-popp-gasse/", "host": "Magistratsabteilung 18 Stadtentwicklung und Stadtplanung", "category": "initiative", "reccuring": "initiative" }, "geometry": { "type": "Point", "coordinates": [ 16.4588837, 48.22988126 ] } },
{ "type": "Feature", "properties": { "id": 1624544, "timestamp_start": "2003-12-31", "timestamp_end": "2030-12-31", "title": "Jugendbeteiligungsprojekte Hernals &#8211; &#8222;Mitreden -Mitbestimmen&#8220;", "description": null, "weblink": "http://www.wiengestalten.at/jugendbeteiligungsprojekte-hernals-mitreden-mitbestimmen/", "host": "TAKE PART Verein zur Förderung partzipativer und innovativer Kinder- und Jugendprojekte", "category": "initiative", "reccuring": "initiative" }, "geometry": { "type": "Point", "coordinates": [ 16.35265256, 48.20407688 ] } },
{ "type": "Feature", "properties": { "id": 1624545, "timestamp_start": "2011-03-07", "timestamp_end": "2030-12-31", "title": "Mädchencafé Flash", "description": null, "weblink": "http://www.wiengestalten.at/maedchencafe-flash/", "host": "flash - Mädchencafé", "category": "initiative", "reccuring": "initiative" }, "geometry": { "type": "Point", "coordinates": [ 16.34485974, 48.20112373 ] } },
{ "type": "Feature", "properties": { "id": 1624546, "timestamp_start": "2005-12-31", "timestamp_end": "2030-12-31", "title": "Kinderforen", "description": null, "weblink": "http://www.wiengestalten.at/kinderforen/", "host": "Kinderfreunde Wien, Parkbetreuung", "category": "initiative", "reccuring": "initiative" }, "geometry": { "type": "Point", "coordinates": [ 16.38788978, 48.17528586 ] } },
{ "type": "Feature", "properties": { "id": 1624547, "timestamp_start": "2015-04-12", "timestamp_end": "2030-12-31", "title": "Stuwert mit!", "description": null, "weblink": "http://www.wiengestalten.at/stuwert-mit/", "host": null, "category": "initiative", "reccuring": "initiative" }, "geometry": { "type": "Point", "coordinates": [ 16.40097572, 48.22021699 ] } },
{ "type": "Feature", "properties": { "id": 1624548, "timestamp_start": "2015-04-12", "timestamp_end": "2030-12-31", "title": "Stuwert mit!", "description": null, "weblink": "http://www.wiengestalten.at/stuwert-mit/", "host": null, "category": "initiative", "reccuring": "initiative" }, "geometry": { "type": "Point", "coordinates": [ 16.40097572, 48.22021699 ] } },
{ "type": "Feature", "properties": { "id": 1624549, "timestamp_start": "2014-09-10", "timestamp_end": "2030-12-31", "title": "Wien Geschichte Wiki", "description": null, "weblink": "http://www.wiengestalten.at/wien-geschichte-wiki/", "host": "MA 8, Wiener Stadt- und Landesarchiv", "category": "initiative", "reccuring": "initiative" }, "geometry": { "type": "Point", "coordinates": [ 16.42162976, 48.18483955 ] } },
{ "type": "Feature", "properties": { "id": 1624553, "timestamp_start": "2015-09-14", "timestamp_end": "2030-12-31", "title": "Teilen in der Herbststraße 15", "description": null, "weblink": "http://www.wiengestalten.at/teilen-in-der-herbstrasse-15/", "host": "GB*7/8/16", "category": "initiative", "reccuring": "initiative" }, "geometry": { "type": "Point", "coordinates": [ 16.3330432, 48.20527488 ] } },
{ "type": "Feature", "properties": { "id": 1624554, "timestamp_start": "2015-09-29", "timestamp_end": "2030-12-31", "title": "Volkertviertel &#8211; &#8222;geht doch!&#8220;", "description": null, "weblink": "http://www.wiengestalten.at/volkertviertel-geht-doch/", "host": "GB*2/20", "category": "initiative", "reccuring": "initiative" }, "geometry": { "type": "Point", "coordinates": [ 16.38643392, 48.22247662 ] } },
{ "type": "Feature", "properties": { "id": 1624556, "timestamp_start": "2011-12-31", "timestamp_end": "2030-12-31", "title": "Operation Grüner Daumen", "description": null, "weblink": "http://www.wiengestalten.at/operation-gruener-daumen/", "host": "Mariahilfer Straße 47/4 Top C, 1060 Wien", "category": "initiative", "reccuring": "initiative" }, "geometry": { "type": "Point", "coordinates": [ 16.35488323, 48.19957893 ] } },
{ "type": "Feature", "properties": { "id": 1624557, "timestamp_start": "2015-09-15", "timestamp_end": "2030-12-31", "title": "Europas größter Dach-Gemeinschaftsgarten", "description": null, "weblink": "http://www.wiengestalten.at/europas-groesster-dach-gemeinschaftsgarten/", "host": "Anita Voraberger, Mediensprecherin StRin Ulli Sima", "category": "initiative", "reccuring": "initiative" }, "geometry": { "type": "Point", "coordinates": [ 16.37418694, 48.20825506 ] } },
{ "type": "Feature", "properties": { "id": 1624558, "timestamp_start": "1999-09-08", "timestamp_end": "2030-12-31", "title": "Wiener Tafel", "description": null, "weblink": "http://www.wiengestalten.at/wiener-tafel/", "host": "Wiener Tafel - Verein für sozialen Transfer", "category": "initiative", "reccuring": "initiative" }, "geometry": { "type": "Point", "coordinates": [ 16.40443449, 48.18457615 ] } },
{ "type": "Feature", "properties": { "id": 1624562, "timestamp_start": "2015-08-21", "timestamp_end": "2030-12-31", "title": "Matznergarten", "description": null, "weblink": "http://www.wiengestalten.at/matznergarten/", "host": "GB*vor Ort", "category": "initiative", "reccuring": "initiative" }, "geometry": { "type": "Point", "coordinates": [ 16.30405197, 48.19578858 ] } },
{ "type": "Feature", "properties": { "id": 1624563, "timestamp_start": "2015-05-03", "timestamp_end": "2030-12-31", "title": "Startet euer Projekt", "description": null, "weblink": "http://www.wiengestalten.at/startet-euer-projekt/", "host": "wienXtra-jugendinfo", "category": "initiative", "reccuring": "initiative" }, "geometry": { "type": "Point", "coordinates": [ 16.36351275, 48.20352163 ] } },
{ "type": "Feature", "properties": { "id": 1624565, "timestamp_start": "2015-05-01", "timestamp_end": "2030-12-31", "title": "Albertgarten", "description": null, "weblink": "http://www.wiengestalten.at/albertgarten/", "host": "Lokale Agenda Josefstadt", "category": "initiative", "reccuring": "initiative" }, "geometry": { "type": "Point", "coordinates": [ 16.3434783, 48.2143283 ] } },
{ "type": "Feature", "properties": { "id": 1624566, "timestamp_start": "2015-04-01", "timestamp_end": "2030-12-31", "title": "Nachbarschaftsgarten Juchgasse", "description": null, "weblink": "http://www.wiengestalten.at/nachbarschaftsgarten-juchgasse/", "host": null, "category": "initiative", "reccuring": "initiative" }, "geometry": { "type": "Point", "coordinates": [ 16.3914461, 48.1967856 ] } },
{ "type": "Feature", "properties": { "id": 1624567, "timestamp_start": "2011-03-31", "timestamp_end": "2030-12-31", "title": "Garten unser Döbling", "description": null, "weblink": "http://www.wiengestalten.at/garten-unser/", "host": "Verein \\\"Garten unser Döbling\\\"", "category": "initiative", "reccuring": "initiative" }, "geometry": { "type": "Point", "coordinates": [ 16.3538451, 48.25721617 ] } },
{ "type": "Feature", "properties": { "id": 1624569, "timestamp_start": "2014-10-09", "timestamp_end": "2030-12-31", "title": "Gründen in Wien", "description": null, "weblink": "http://www.wiengestalten.at/gruenden-in-wien/", "host": "Wirtschaftsagentur Wien", "category": "initiative", "reccuring": "initiative" }, "geometry": { "type": "Point", "coordinates": [ 16.35783542, 48.21193097 ] } },
{ "type": "Feature", "properties": { "id": 1624572, "timestamp_start": "2014-04-08", "timestamp_end": "2030-12-31", "title": "BürgerInnenbeteiligungsprozess zum Leitbild Donaufeld", "description": null, "weblink": "http://www.wiengestalten.at/buergerinnenbeteiligungsprozess-zum-leitbild-donaufeld/", "host": "stadtland GmbH, Dipl.-Ing. Sibylla Zech", "category": "initiative", "reccuring": "initiative" }, "geometry": { "type": "Point", "coordinates": [ 16.42811444, 48.24808741 ] } },
{ "type": "Feature", "properties": { "id": 1624576, "timestamp_start": "2012-05-06", "timestamp_end": "2030-12-31", "title": "Spielstraße Kleistgasse", "description": null, "weblink": "http://www.wiengestalten.at/spielstrasse-kleistgasse/", "host": "GB*3/11", "category": "initiative", "reccuring": "initiative" }, "geometry": { "type": "Point", "coordinates": [ 16.38978864, 48.19117338 ] } },
{ "type": "Feature", "properties": { "id": 1624579, "timestamp_start": "2014-05-07", "timestamp_end": "2030-12-31", "title": "Nachbarschaftsgarten Währing", "description": null, "weblink": "http://www.wiengestalten.at/nachbarschaftsgarten-waehring/", "host": "GB*9/17/18", "category": "initiative", "reccuring": "initiative" }, "geometry": { "type": "Point", "coordinates": [ 16.34785673, 48.23072758 ] } },
{ "type": "Feature", "properties": { "id": 1624585, "timestamp_start": "2006-03-03", "timestamp_end": "2030-12-31", "title": "Metalab", "description": null, "weblink": "http://www.wiengestalten.at/metalab/", "host": "Verein Metalab", "category": "initiative", "reccuring": "initiative" }, "geometry": { "type": "Point", "coordinates": [ 16.35633006, 48.20928904 ] } },
{ "type": "Feature", "properties": { "id": 1624586, "timestamp_start": "2013-02-28", "timestamp_end": "2030-12-31", "title": "NOVAgarten &#8211; Garten macht Schule", "description": null, "weblink": "http://www.wiengestalten.at/novagarten/", "host": "isebuki KunstverEinmischung", "category": "initiative", "reccuring": "initiative" }, "geometry": { "type": "Point", "coordinates": [ 16.38555066, 48.21883673 ] } },
{ "type": "Feature", "properties": { "id": 1624587, "timestamp_start": "2013-02-28", "timestamp_end": "2030-12-31", "title": "NOVAgarten &#8211; Garten macht Schule", "description": null, "weblink": "http://www.wiengestalten.at/novagarten/", "host": "isebuki KunstverEinmischung", "category": "initiative", "reccuring": "initiative" }, "geometry": { "type": "Point", "coordinates": [ 16.38555066, 48.21883673 ] } },
{ "type": "Feature", "properties": { "id": 1624589, "timestamp_start": "2011-03-31", "timestamp_end": "2030-12-31", "title": "Kontakt-Garten", "description": null, "weblink": "http://www.wiengestalten.at/kontaktgarten/", "host": "Verein Station Wien", "category": "initiative", "reccuring": "initiative" }, "geometry": { "type": "Point", "coordinates": [ 16.34934664, 48.1856587 ] } },
{ "type": "Feature", "properties": { "id": 1624590, "timestamp_start": "2013-03-31", "timestamp_end": "2030-12-31", "title": "Gemeinschaftsgarten Löwenzahn", "description": null, "weblink": "http://www.wiengestalten.at/gemeinschaftsgarten-loewenzahn/", "host": "Gemeinschaftsgarten Löwenzahn", "category": "initiative", "reccuring": "initiative" }, "geometry": { "type": "Point", "coordinates": [ 16.38290735, 48.23873599 ] } },
{ "type": "Feature", "properties": { "id": 1624591, "timestamp_start": "2014-02-28", "timestamp_end": "2030-12-31", "title": "Garten Matzleinsdorf", "description": null, "weblink": "http://www.wiengestalten.at/garten-matzleinsdorf/", "host": "Garten Matzleinsdorf", "category": "initiative", "reccuring": "initiative" }, "geometry": { "type": "Point", "coordinates": [ 16.35891004, 48.17719598 ] } },
{ "type": "Feature", "properties": { "id": 1624592, "timestamp_start": "2013-02-28", "timestamp_end": "2030-12-31", "title": "Mintzgarten", "description": null, "weblink": "http://www.wiengestalten.at/mintzgarten/", "host": "GB*2/20", "category": "initiative", "reccuring": "initiative" }, "geometry": { "type": "Point", "coordinates": [ 16.39611027, 48.22581648 ] } },
{ "type": "Feature", "properties": { "id": 1624593, "timestamp_start": "2013-02-28", "timestamp_end": "2030-12-31", "title": "Garten SAMBA", "description": null, "weblink": "http://www.wiengestalten.at/garten-samba/", "host": "GB*2/20", "category": "initiative", "reccuring": "initiative" }, "geometry": { "type": "Point", "coordinates": [ 16.38596983, 48.22588767 ] } },
{ "type": "Feature", "properties": { "id": 1624594, "timestamp_start": "2013-05-31", "timestamp_end": "2030-12-31", "title": "Nachbarschaftsgarten am Broßmannplatz", "description": null, "weblink": "http://www.wiengestalten.at/gemeinschaftsgarten-brossmannplatz/", "host": "Verein Nachbarschaftsgarten am Broßmannplatz / GB*21", "category": "initiative", "reccuring": "initiative" }, "geometry": { "type": "Point", "coordinates": [ 16.39965146, 48.25227076 ] } },
{ "type": "Feature", "properties": { "id": 1624595, "timestamp_start": "2013-03-31", "timestamp_end": "2030-12-31", "title": "Seestadtgarten", "description": null, "weblink": "http://www.wiengestalten.at/seestadtgarten/", "host": "Verein Gartenpoylog", "category": "initiative", "reccuring": "initiative" }, "geometry": { "type": "Point", "coordinates": [ 16.49796686, 48.22500836 ] } },
{ "type": "Feature", "properties": { "id": 1624596, "timestamp_start": "2013-03-31", "timestamp_end": "2030-12-31", "title": "Seestadtgarten", "description": null, "weblink": "http://www.wiengestalten.at/seestadtgarten/", "host": "Verein Gartenpoylog", "category": "initiative", "reccuring": "initiative" }, "geometry": { "type": "Point", "coordinates": [ 16.49796686, 48.22500836 ] } },
{ "type": "Feature", "properties": { "id": 1624597, "timestamp_start": "2014-04-30", "timestamp_end": "2030-12-31", "title": "Wien 1&#215;1", "description": null, "weblink": "http://www.wiengestalten.at/wien-1x1/", "host": "MA 5 - Finanzwesen", "category": "initiative", "reccuring": "initiative" }, "geometry": { "type": "Point", "coordinates": [ 16.35783542, 48.21193097 ] } },
{ "type": "Feature", "properties": { "id": 1624598, "timestamp_start": "2014-09-11", "timestamp_end": "2030-12-31", "title": "Digitale Agenda Wien", "description": null, "weblink": "http://www.wiengestalten.at/digitale-agenda-wien/", "host": "Stadt Wien, Geschäftsbereich Organisation und Sicherheit, MD-OS - Gruppe Prozessmanagement und IKT-S", "category": "initiative", "reccuring": "initiative" }, "geometry": { "type": "Point", "coordinates": [ 16.35618113, 48.20965455 ] } },
{ "type": "Feature", "properties": { "id": 1624599, "timestamp_start": "2011-03-08", "timestamp_end": "2030-12-31", "title": "Open Government Data", "description": null, "weblink": "http://www.wiengestalten.at/open-government-data-wien/", "host": "Stadt Wien, Geschäftsbereich Organisation und Sicherheit, MD-OS - Gruppe Prozessmanagement und IKT-S", "category": "initiative", "reccuring": "initiative" }, "geometry": { "type": "Point", "coordinates": [ 16.35641711, 48.20995695 ] } },
{ "type": "Feature", "properties": { "id": 1624601, "timestamp_start": "2013-11-30", "timestamp_end": "2030-12-31", "title": "Wien zu Fuß Wunschbox", "description": null, "weblink": "http://www.wiengestalten.at/wien-zu-fuss-wunschbox/", "host": "Mobilitätsagentur Wien GmbH", "category": "initiative", "reccuring": "initiative" }, "geometry": { "type": "Point", "coordinates": [ 16.37836376, 48.21645856 ] } },
{ "type": "Feature", "properties": { "id": 1624603, "timestamp_start": "2011-10-19", "timestamp_end": "2030-12-31", "title": "1. Meidlinger Nachbarschaftsgarten &#8211; Steinhagegarten", "description": null, "weblink": "http://www.wiengestalten.at/1-meidlinger-nachbarschaftsgarten-steinhagegarten/", "host": "GB*5/12", "category": "initiative", "reccuring": "initiative" }, "geometry": { "type": "Point", "coordinates": [ 16.34066264, 48.18557969 ] } },
{ "type": "Feature", "properties": { "id": 1624604, "timestamp_start": "2011-10-19", "timestamp_end": "2030-12-31", "title": "1. Meidlinger Nachbarschaftsgarten &#8211; Steinhagegarten", "description": null, "weblink": "http://www.wiengestalten.at/1-meidlinger-nachbarschaftsgarten-steinhagegarten/", "host": "GB*5/12", "category": "initiative", "reccuring": "initiative" }, "geometry": { "type": "Point", "coordinates": [ 16.34066264, 48.18557969 ] } },
{ "type": "Feature", "properties": { "id": 1624605, "timestamp_start": "2013-01-02", "timestamp_end": "2030-12-31", "title": "Gemeinschaftsgarten Kirchengasse", "description": null, "weblink": "http://www.wiengestalten.at/gemeinschaftsgarten-krichengasse/", "host": null, "category": "initiative", "reccuring": "initiative" }, "geometry": { "type": "Point", "coordinates": [ 16.351919, 48.2046798 ] } },
{ "type": "Feature", "properties": { "id": 1624609, "timestamp_start": "2012-03-31", "timestamp_end": "2030-12-31", "title": "Gemeinschaftsgarten Rosenberg", "description": null, "weblink": "http://www.wiengestalten.at/gemeinschaftsgarten-rosenberg/", "host": "Wohnpartner 17_18_19", "category": "initiative", "reccuring": "initiative" }, "geometry": { "type": "Point", "coordinates": [ 16.30392567, 48.22954332 ] } },
{ "type": "Feature", "properties": { "id": 1624610, "timestamp_start": "2014-05-31", "timestamp_end": "2030-12-31", "title": "Junges Gemüse Wieden", "description": null, "weblink": "http://www.wiengestalten.at/junges-gemuese-wieden/", "host": null, "category": "initiative", "reccuring": "initiative" }, "geometry": { "type": "Point", "coordinates": [ 16.36328557, 48.18934448 ] } },
{ "type": "Feature", "properties": { "id": 1624611, "timestamp_start": "2014-05-31", "timestamp_end": "2030-12-31", "title": "Junges Gemüse Wieden", "description": null, "weblink": "http://www.wiengestalten.at/junges-gemuese-wieden/", "host": null, "category": "initiative", "reccuring": "initiative" }, "geometry": { "type": "Point", "coordinates": [ 16.36328557, 48.18934448 ] } },
{ "type": "Feature", "properties": { "id": 1624612, "timestamp_start": "2014-06-01", "timestamp_end": "2030-12-31", "title": "We love Ottakring", "description": null, "weblink": "http://www.wiengestalten.at/love-ottakring/", "host": "GB*7/8/16", "category": "initiative", "reccuring": "initiative" }, "geometry": { "type": "Point", "coordinates": [ 16.33161167, 48.21290914 ] } },
{ "type": "Feature", "properties": { "id": 1624613, "timestamp_start": "2014-04-23", "timestamp_end": "2030-12-31", "title": "Karls Garten", "description": null, "weblink": "http://www.wiengestalten.at/karlsgarten/", "host": "Karls Garten - Verein zur Förderung urbaner Landwirtschaft in Wien", "category": "initiative", "reccuring": "initiative" }, "geometry": { "type": "Point", "coordinates": [ 16.36769832, 48.20021022 ] } },
{ "type": "Feature", "properties": { "id": 1624614, "timestamp_start": "2012-09-30", "timestamp_end": "2030-12-31", "title": "Fahrrad Wunschbox", "description": null, "weblink": "http://www.wiengestalten.at/fahrrad-wunschbox/", "host": "Wien zu Fuß  Mobilitätsagentur Wien GmbH", "category": "initiative", "reccuring": "initiative" }, "geometry": { "type": "Point", "coordinates": [ 16.37836376, 48.21645856 ] } },
{ "type": "Feature", "properties": { "id": 1624633, "timestamp_start": "1999-12-31", "timestamp_end": "2030-12-31", "title": "Kidsline.at &#8211; Kiddi + Co", "description": null, "weblink": "http://www.wiengestalten.at/kidsline-at-verein-kiddi-co/", "host": "Kiddy & Co", "category": "initiative", "reccuring": "initiative" }, "geometry": { "type": "Point", "coordinates": [ 16.30919382, 48.19604072 ] } },
{ "type": "Feature", "properties": { "id": 1625299, "timestamp_start": "2007-08-31", "timestamp_end": "2030-12-31", "title": "Generationenplattform: Auf eine gute Nachbarschaft im Norwegerviertel und Erzherzog-Karl-Stadt!", "description": null, "weblink": "http://www.wiengestalten.at/generationenplattform/", "host": "Lokale Agenda Donaustadt", "category": "initiative", "reccuring": "initiative" }, "geometry": { "type": "Point", "coordinates": [ 16.46765652, 48.21536064 ] } },
{ "type": "Feature", "properties": { "id": 1625300, "timestamp_start": "2007-08-31", "timestamp_end": "2030-12-31", "title": "Generationenplattform: Auf eine gute Nachbarschaft im Norwegerviertel und Erzherzog-Karl-Stadt!", "description": null, "weblink": "http://www.wiengestalten.at/generationenplattform/", "host": "Lokale Agenda Donaustadt", "category": "initiative", "reccuring": "initiative" }, "geometry": { "type": "Point", "coordinates": [ 16.46765652, 48.21536064 ] } },
{ "type": "Feature", "properties": { "id": 1625302, "timestamp_start": "2009-08-31", "timestamp_end": "2030-12-31", "title": "Kinder- und Jugendparlament Wieden &#8211; JUPA 4", "description": null, "weblink": "http://www.wiengestalten.at/jugendparlament-wieden-jupa-4/", "host": "Wiener Familienbund", "category": "initiative", "reccuring": "initiative" }, "geometry": { "type": "Point", "coordinates": [ 16.36984171, 48.19434254 ] } },
{ "type": "Feature", "properties": { "id": 1625307, "timestamp_start": "2009-12-31", "timestamp_end": "2030-12-31", "title": "Die Gumpendorfer &#8211; eine aktive Straße", "description": null, "weblink": "http://www.wiengestalten.at/die-gumpendorfer-eine-aktive-strasse/", "host": "GB*6/14/15", "category": "initiative", "reccuring": "initiative" }, "geometry": { "type": "Point", "coordinates": [ 16.35156992, 48.1958529 ] } },
{ "type": "Feature", "properties": { "id": 1625312, "timestamp_start": "2011-02-28", "timestamp_end": "2030-12-31", "title": "Smart City Wien", "description": null, "weblink": "http://www.wiengestalten.at/smart-city-wien/", "host": "TINA Vienna Urban Technologies + Strategies GmbH", "category": "initiative", "reccuring": "initiative" }, "geometry": { "type": "Point", "coordinates": [ 16.36228621, 48.21751105 ] } },
{ "type": "Feature", "properties": { "id": 1624429, "timestamp_start": "2013-09-30", "timestamp_end": "2030-12-31", "title": "Leitbild &#8211; Zielgebiet Donaufeld", "description": null, "weblink": "http://www.wiengestalten.at/leitbild-zielgebiet-donaufeld/", "host": "MA21 - Stadteilplanung und Flächennutzung", "category": "initiative", "reccuring": "initiative" }, "geometry": { "type": "Point", "coordinates": [ 16.41269098, 48.25371107 ] } },
{ "type": "Feature", "properties": { "id": 1624430, "timestamp_start": "2013-12-31", "timestamp_end": "2026-06-02", "title": "Lebensmittelkooperative &#8222;Food X&#8220;", "description": null, "weblink": "http://www.wiengestalten.at/lebensmittelkooperative-food-x/", "host": "Lokale Agenda Favoriten", "category": "initiative", "reccuring": "initiative" }, "geometry": { "type": "Point", "coordinates": [ 16.38031007, 48.17243861 ] } },
{ "type": "Feature", "properties": { "id": 1624431, "timestamp_start": "2013-12-31", "timestamp_end": "2030-12-31", "title": "Freiraumgestaltung für (und mit) Mädchen in Innerfavoriten", "description": null, "weblink": "http://www.wiengestalten.at/freiraumgestaltung-fuer-und-mit-maedchen-innerfavoriten/", "host": "Lokale Agenda Favoriten", "category": "initiative", "reccuring": "initiative" }, "geometry": { "type": "Point", "coordinates": [ 16.37986587, 48.1723001 ] } },
{ "type": "Feature", "properties": { "id": 1624432, "timestamp_start": "2013-12-31", "timestamp_end": "2030-12-31", "title": "Verkehrskonzept Wienerberg-City", "description": null, "weblink": "http://www.wiengestalten.at/verkehrskonzept-wienerberg-city/", "host": "Lokale Agenda Favoriten", "category": "initiative", "reccuring": "initiative" }, "geometry": { "type": "Point", "coordinates": [ 16.37986587, 48.1723001 ] } },
{ "type": "Feature", "properties": { "id": 1624433, "timestamp_start": "2013-12-31", "timestamp_end": "2030-12-31", "title": "Spiel- und Freiräume in Favoriten – Monte Laa", "description": null, "weblink": "http://www.wiengestalten.at/spiel-und-freiraeume-in-favoriten-monte-laa/", "host": "Lokale Agenda Favoriten", "category": "initiative", "reccuring": "initiative" }, "geometry": { "type": "Point", "coordinates": [ 16.37986587, 48.1723001 ] } },
{ "type": "Feature", "properties": { "id": 1624434, "timestamp_start": "2013-12-31", "timestamp_end": "2030-12-31", "title": "Inter-/Kultureller Dialog", "description": null, "weblink": "http://www.wiengestalten.at/inter-kultureller-dialog/", "host": "Lokale Agenda Favoriten", "category": "initiative", "reccuring": "initiative" }, "geometry": { "type": "Point", "coordinates": [ 16.37986587, 48.1723001 ] } },
{ "type": "Feature", "properties": { "id": 1624437, "timestamp_start": "2013-12-31", "timestamp_end": "2030-12-31", "title": "Gedenkprojekt Volksopernviertel", "description": null, "weblink": "http://www.wiengestalten.at/gedenkprojekt-volksopernviertel/", "host": "Lokale Agenda Alsergrund", "category": "initiative", "reccuring": "initiative" }, "geometry": { "type": "Point", "coordinates": [ 16.35435541, 48.22587481 ] } },
{ "type": "Feature", "properties": { "id": 1624438, "timestamp_start": "2013-09-30", "timestamp_end": "2030-12-31", "title": "Alserbachstraße &#8211; eine Straße im Aufschwung", "description": null, "weblink": "http://www.wiengestalten.at/alserbachstrasse-eine-strasse-im-aufschwung/", "host": "Lokale Agenda Alsergrund", "category": "initiative", "reccuring": "initiative" }, "geometry": { "type": "Point", "coordinates": [ 16.35946153, 48.22531955 ] } },
{ "type": "Feature", "properties": { "id": 1624439, "timestamp_start": "2013-09-30", "timestamp_end": "2030-12-31", "title": "Alserbachstraße &#8211; eine Straße im Aufschwung", "description": null, "weblink": "http://www.wiengestalten.at/alserbachstrasse-eine-strasse-im-aufschwung/", "host": "Lokale Agenda Alsergrund", "category": "initiative", "reccuring": "initiative" }, "geometry": { "type": "Point", "coordinates": [ 16.35946153, 48.22531955 ] } },
{ "type": "Feature", "properties": { "id": 1624442, "timestamp_start": "2011-12-31", "timestamp_end": "2030-12-31", "title": "Marktbeirat &#8211; Schlingermarkt", "description": null, "weblink": "http://www.wiengestalten.at/marktbeirat-schlingermarkt/", "host": "WKO, Karl Machulka", "category": "initiative", "reccuring": "initiative" }, "geometry": { "type": "Point", "coordinates": [ 16.40149419, 48.26149069 ] } },
{ "type": "Feature", "properties": { "id": 1624444, "timestamp_start": "2013-12-31", "timestamp_end": "2030-12-31", "title": "Urbanitätsoffensive Hauptbahnhof Umfeld (UHU)", "description": null, "weblink": "http://www.wiengestalten.at/urbanitaetsoffensive-hauptbahnhof-umfeld-uhu/", "host": "Wirtschaftskammer Wien, Abteilung Stadtplanung und Verkehrspolitik", "category": "initiative", "reccuring": "initiative" }, "geometry": { "type": "Point", "coordinates": [ 16.37803525, 48.18246958 ] } },
{ "type": "Feature", "properties": { "id": 1624449, "timestamp_start": "2012-12-31", "timestamp_end": "2030-12-31", "title": "Interkulturelles Zusammenleben", "description": null, "weblink": "http://www.wiengestalten.at/interkulturelles-zusammenleben/", "host": "Lokale Agenda Liesing", "category": "initiative", "reccuring": "initiative" }, "geometry": { "type": "Point", "coordinates": [ 16.28336884, 48.13659792 ] } },
{ "type": "Feature", "properties": { "id": 1624450, "timestamp_start": "2010-12-31", "timestamp_end": "2030-12-31", "title": "Gruppe Respekt", "description": null, "weblink": "http://www.wiengestalten.at/gruppe-respekt/", "host": "Stadtteilzentrum Bassena", "category": "initiative", "reccuring": "initiative" }, "geometry": { "type": "Point", "coordinates": [ 16.32706035, 48.16092535 ] } },
{ "type": "Feature", "properties": { "id": 1624454, "timestamp_start": "2009-12-31", "timestamp_end": "2030-12-31", "title": "Radverkehr in Liesing", "description": null, "weblink": "http://www.wiengestalten.at/radverkehr-in-liesing/", "host": "Lokale Agenda Liesing", "category": "initiative", "reccuring": "initiative" }, "geometry": { "type": "Point", "coordinates": [ 16.28336884, 48.13659792 ] } },
{ "type": "Feature", "properties": { "id": 1624456, "timestamp_start": "2012-02-29", "timestamp_end": "2030-12-31", "title": "Grätzlgarten 9", "description": null, "weblink": "http://www.wiengestalten.at/graetzlgarten-9/", "host": "Verein Grätzlgärten Alsergrund", "category": "initiative", "reccuring": "initiative" }, "geometry": { "type": "Point", "coordinates": [ 16.35442501, 48.21986861 ] } },
{ "type": "Feature", "properties": { "id": 1624457, "timestamp_start": "2010-12-31", "timestamp_end": "2030-12-31", "title": "Sensengarten", "description": null, "weblink": "http://www.wiengestalten.at/sensengarten/", "host": "Sensengarten", "category": "initiative", "reccuring": "initiative" }, "geometry": { "type": "Point", "coordinates": [ 16.35503991, 48.22030306 ] } },
{ "type": "Feature", "properties": { "id": 1624462, "timestamp_start": "2004-12-31", "timestamp_end": "2030-12-31", "title": "Spielen auf der Wieden", "description": null, "weblink": "http://www.wiengestalten.at/spielen-auf-der-wieden/", "host": "Lokale Agenda Wieden", "category": "initiative", "reccuring": "initiative" }, "geometry": { "type": "Point", "coordinates": [ 16.36658394, 48.19209379 ] } },
{ "type": "Feature", "properties": { "id": 1624464, "timestamp_start": "2010-12-31", "timestamp_end": "2030-12-31", "title": "Fairtrade", "description": null, "weblink": "http://www.wiengestalten.at/fairtrade/", "host": "Lokale Agenda Alsergrund", "category": "initiative", "reccuring": "initiative" }, "geometry": { "type": "Point", "coordinates": [ 16.35435541, 48.22587481 ] } },
{ "type": "Feature", "properties": { "id": 1624465, "timestamp_start": "2007-12-31", "timestamp_end": "2030-12-31", "title": "Steine des Gedenkens", "description": null, "weblink": "http://www.wiengestalten.at/steine-des-gedenkens/", "host": "Lokale Agenda Landstraße", "category": "initiative", "reccuring": "initiative" }, "geometry": { "type": "Point", "coordinates": [ 16.38648462, 48.19918711 ] } },
{ "type": "Feature", "properties": { "id": 1624467, "timestamp_start": "2004-12-31", "timestamp_end": "2030-12-31", "title": "Kunst findet Stadt", "description": null, "weblink": "http://www.wiengestalten.at/kunst-findet-stadt/", "host": "Lokale Agenda Liesing", "category": "initiative", "reccuring": "initiative" }, "geometry": { "type": "Point", "coordinates": [ 16.28336884, 48.13659792 ] } },
{ "type": "Feature", "properties": { "id": 1624470, "timestamp_start": "2007-12-31", "timestamp_end": "2030-12-31", "title": "Stadtteilnetzwerk Hirschstetten", "description": null, "weblink": "http://www.wiengestalten.at/stadtteilnetzwerk-hirschstetten/", "host": "Lokale Agenda Liesing", "category": "initiative", "reccuring": "initiative" }, "geometry": { "type": "Point", "coordinates": [ 16.46003581, 48.23939397 ] } },
{ "type": "Feature", "properties": { "id": 1624472, "timestamp_start": "2011-12-31", "timestamp_end": "2030-12-31", "title": "Agendagruppe Generationen", "description": null, "weblink": "http://www.wiengestalten.at/agendagruppe-generationen/", "host": "Lokale Agenda Alsergrund", "category": "initiative", "reccuring": "initiative" }, "geometry": { "type": "Point", "coordinates": [ 16.35435541, 48.22587481 ] } },
{ "type": "Feature", "properties": { "id": 1624458, "timestamp_start": "2010-12-31", "timestamp_end": "2030-12-31", "title": "Sensengarten", "description": null, "weblink": "http://www.wiengestalten.at/sensengarten/", "host": "Sensengarten", "category": "initiative", "reccuring": "initiative" }, "geometry": { "type": "Point", "coordinates": [ 16.35503991, 48.22030306 ] } },
{ "type": "Feature", "properties": { "id": 1624474, "timestamp_start": "2015-08-31", "timestamp_end": "2030-12-31", "title": "Gedenkprojekt Volksopenviertel", "description": null, "weblink": "http://www.wiengestalten.at/gedenkprojekt-volksopenviertel/", "host": "Verein zur Erforschung der Geschichte des Volksopernviertels in den Jahren 1938 - 1945", "category": "initiative", "reccuring": "initiative" }, "geometry": { "type": "Point", "coordinates": [ 16.35306077, 48.22420417 ] } },
{ "type": "Feature", "properties": { "id": 1624477, "timestamp_start": "2016-05-29", "timestamp_end": "2030-12-31", "title": "Garteln in Wien", "description": null, "weblink": "http://www.wiengestalten.at/garteln-in-wien/", "host": "Bio Forschung Austria – Garteln in Wien", "category": "initiative", "reccuring": "initiative" }, "geometry": { "type": "Point", "coordinates": [ 16.53033992, 48.21201073 ] } },
{ "type": "Feature", "properties": { "id": 1624479, "timestamp_start": "2016-05-31", "timestamp_end": "2030-12-31", "title": "Ein Garten für alle!", "description": null, "weblink": "http://www.wiengestalten.at/ein-garten-fuer-alle/", "host": "GB*9/17/18 - Außenstelle Lazarettgasse 9.", "category": "initiative", "reccuring": "initiative" }, "geometry": { "type": "Point", "coordinates": [ 16.36157658, 48.22826015 ] } },
{ "type": "Feature", "properties": { "id": 1624480, "timestamp_start": "2016-05-31", "timestamp_end": "2030-12-31", "title": "Ein Garten für alle!", "description": null, "weblink": "http://www.wiengestalten.at/ein-garten-fuer-alle/", "host": "GB*9/17/18 - Außenstelle Lazarettgasse 9.", "category": "initiative", "reccuring": "initiative" }, "geometry": { "type": "Point", "coordinates": [ 16.36157658, 48.22826015 ] } },
{ "type": "Feature", "properties": { "id": 1624482, "timestamp_start": "2016-04-30", "timestamp_end": "2030-12-31", "title": "Die Straße nutzen! &#8211; Experiment in der Aspangstraße", "description": null, "weblink": "http://www.wiengestalten.at/die-strasse-nutzen-experiment-in-der-aspangstrasse/", "host": "GB*3/11", "category": "initiative", "reccuring": "initiative" }, "geometry": { "type": "Point", "coordinates": [ 16.39261419, 48.19213601 ] } },
{ "type": "Feature", "properties": { "id": 1624483, "timestamp_start": "2015-03-31", "timestamp_end": "2030-12-31", "title": "Naschgarten", "description": null, "weblink": "http://www.wiengestalten.at/naschgarten/", "host": "GB*21 21", "category": "initiative", "reccuring": "initiative" }, "geometry": { "type": "Point", "coordinates": [ 16.42089202, 48.25640893 ] } },
{ "type": "Feature", "properties": { "id": 1624484, "timestamp_start": "2015-06-28", "timestamp_end": "2030-12-31", "title": "Stadtmenschen", "description": null, "weblink": "http://www.wiengestalten.at/stadtmenschen/", "host": "Social City Wien", "category": "initiative", "reccuring": "initiative" }, "geometry": { "type": "Point", "coordinates": [ 16.37575842, 48.23214488 ] } },
{ "type": "Feature", "properties": { "id": 1624498, "timestamp_start": "2016-04-10", "timestamp_end": "2030-12-31", "title": "Erweiterungsplanung des Evangelischen Krankenhauses", "description": null, "weblink": "http://www.wiengestalten.at/erweiterungsplanung-des-evangelischen-krankenhauses/", "host": "MA21 - Stadtteilplanung und Flächennutzung", "category": "initiative", "reccuring": "initiative" }, "geometry": { "type": "Point", "coordinates": [ 16.34571423, 48.22413163 ] } },
{ "type": "Feature", "properties": { "id": 1624511, "timestamp_start": "2014-04-30", "timestamp_end": "2030-12-31", "title": "Jane&#8217;s Walk Vienna", "description": null, "weblink": "http://www.wiengestalten.at/janes-walk-vienna/", "host": "Andreas Lindinger, City Organizer Jane's Walk Vienna", "category": "initiative", "reccuring": "initiative" }, "geometry": { "type": "Point", "coordinates": [ 16.37418694, 48.20825506 ] } },
{ "type": "Feature", "properties": { "id": 1624516, "timestamp_start": "2015-08-31", "timestamp_end": "2030-12-31", "title": "Öffentlicher Raum im Kernbereich Penzing", "description": null, "weblink": "http://www.wiengestalten.at/beteiligungsprozess-zum-oeffentlichen-raum-im-kernbereich-penzing/", "host": "Magistratsabteilung 18 Stadtentwicklung und Stadtplanung", "category": "initiative", "reccuring": "initiative" }, "geometry": { "type": "Point", "coordinates": [ 16.30284489, 48.1895069 ] } },
{ "type": "Feature", "properties": { "id": 1624519, "timestamp_start": "2009-04-01", "timestamp_end": "2030-12-31", "title": "Central Garden", "description": null, "weblink": "http://www.wiengestalten.at/central-garden/", "host": "CENTRAL GARDEN Gemeinschaftsgarten am Donaukanal", "category": "initiative", "reccuring": "initiative" }, "geometry": { "type": "Point", "coordinates": [ 16.3883349, 48.21401604 ] } },
{ "type": "Feature", "properties": { "id": 1624522, "timestamp_start": "2010-05-31", "timestamp_end": "2030-12-31", "title": "Samstag in der Stadt", "description": null, "weblink": "http://www.wiengestalten.at/samstag-in-der-stadt/", "host": "Nadia Prauhart und Tamara Schwarzmayr", "category": "initiative", "reccuring": "initiative" }, "geometry": { "type": "Point", "coordinates": [ 16.32881328, 48.19129431 ] } },
{ "type": "Feature", "properties": { "id": 1624523, "timestamp_start": "2003-12-31", "timestamp_end": "2030-12-31", "title": "Fahrgastbeirat Wiener Linien", "description": null, "weblink": "http://www.wiengestalten.at/fahrgastbeirat-wr-linien/", "host": "Wiener Linien", "category": "initiative", "reccuring": "initiative" }, "geometry": { "type": "Point", "coordinates": [ 16.41504272, 48.19029736 ] } },
{ "type": "Feature", "properties": { "id": 1624524, "timestamp_start": "2013-05-31", "timestamp_end": "2030-12-31", "title": "Schwendermarkt mitgestalten", "description": null, "weblink": "http://www.wiengestalten.at/schwendermarkt-mitgestalten/", "host": "GB*6/14/15", "category": "initiative", "reccuring": "initiative" }, "geometry": { "type": "Point", "coordinates": [ 16.33387803, 48.18792538 ] } },
{ "type": "Feature", "properties": { "id": 1624525, "timestamp_start": "2013-05-31", "timestamp_end": "2030-12-31", "title": "Schwendermarkt mitgestalten", "description": null, "weblink": "http://www.wiengestalten.at/schwendermarkt-mitgestalten/", "host": "GB*6/14/15", "category": "initiative", "reccuring": "initiative" }, "geometry": { "type": "Point", "coordinates": [ 16.33387803, 48.18792538 ] } },
{ "type": "Feature", "properties": { "id": 1624528, "timestamp_start": "2015-06-30", "timestamp_end": "2030-12-31", "title": "Verkehr im Lobauvorland", "description": null, "weblink": "http://www.wiengestalten.at/verkehr-im-lobauvorland/", "host": "MA 21", "category": "initiative", "reccuring": "initiative" }, "geometry": { "type": "Point", "coordinates": [ 16.51076189, 48.20778574 ] } },
{ "type": "Feature", "properties": { "id": 1624529, "timestamp_start": "2013-12-31", "timestamp_end": "2030-12-31", "title": "L(i)ebenswertes Matznerviertel", "description": null, "weblink": "http://www.wiengestalten.at/liebenswertes-matznerviertel/", "host": null, "category": "initiative", "reccuring": "initiative" }, "geometry": { "type": "Point", "coordinates": [ 16.30412282, 48.19541691 ] } },
{ "type": "Feature", "properties": { "id": 1624530, "timestamp_start": "2013-12-31", "timestamp_end": "2030-12-31", "title": "L(i)ebenswertes Matznerviertel", "description": null, "weblink": "http://www.wiengestalten.at/liebenswertes-matznerviertel/", "host": null, "category": "initiative", "reccuring": "initiative" }, "geometry": { "type": "Point", "coordinates": [ 16.30412282, 48.19541691 ] } },
{ "type": "Feature", "properties": { "id": 1624531, "timestamp_start": "2013-12-31", "timestamp_end": "2030-12-31", "title": "L(i)ebenswertes Matznerviertel", "description": null, "weblink": "http://www.wiengestalten.at/liebenswertes-matznerviertel/", "host": null, "category": "initiative", "reccuring": "initiative" }, "geometry": { "type": "Point", "coordinates": [ 16.30412282, 48.19541691 ] } },
{ "type": "Feature", "properties": { "id": 1624532, "timestamp_start": "2013-12-31", "timestamp_end": "2030-12-31", "title": "L(i)ebenswertes Matznerviertel", "description": null, "weblink": "http://www.wiengestalten.at/liebenswertes-matznerviertel/", "host": null, "category": "initiative", "reccuring": "initiative" }, "geometry": { "type": "Point", "coordinates": [ 16.30412282, 48.19541691 ] } },
{ "type": "Feature", "properties": { "id": 1624533, "timestamp_start": "2013-12-31", "timestamp_end": "2030-12-31", "title": "L(i)ebenswertes Matznerviertel", "description": null, "weblink": "http://www.wiengestalten.at/liebenswertes-matznerviertel/", "host": null, "category": "initiative", "reccuring": "initiative" }, "geometry": { "type": "Point", "coordinates": [ 16.30412282, 48.19541691 ] } },
{ "type": "Feature", "properties": { "id": 1624534, "timestamp_start": "2013-12-31", "timestamp_end": "2030-12-31", "title": "Kinder- und Jugendforum Favoriten", "description": null, "weblink": "http://www.wiengestalten.at/kinderforum/", "host": "Parkbetreuung der Wiener Kinderfreunde", "category": "initiative", "reccuring": "initiative" }, "geometry": { "type": "Point", "coordinates": [ 16.38788978, 48.17528586 ] } },
{ "type": "Feature", "properties": { "id": 1624535, "timestamp_start": "2013-12-31", "timestamp_end": "2030-12-31", "title": "SchülervertreterInnen Club Favoriten", "description": null, "weblink": "http://www.wiengestalten.at/svc/", "host": "Parkbetreuung der Wiener Kinderfreunde", "category": "initiative", "reccuring": "initiative" }, "geometry": { "type": "Point", "coordinates": [ 16.35738728, 48.17143734 ] } },
{ "type": "Feature", "properties": { "id": 1624536, "timestamp_start": "2013-12-31", "timestamp_end": "2030-12-31", "title": "Teeniesbetreuung Favoriten", "description": null, "weblink": "http://www.wiengestalten.at/teeniesbetreuung/", "host": "Parkbetreuung der Wiener Kinderfreunde", "category": "initiative", "reccuring": "initiative" }, "geometry": { "type": "Point", "coordinates": [ 16.35738728, 48.17143734 ] } },
{ "type": "Feature", "properties": { "id": 1624537, "timestamp_start": "2013-12-31", "timestamp_end": "2030-12-31", "title": "Genderpool Favoriten", "description": null, "weblink": "http://www.wiengestalten.at/genderpool/", "host": "Parkbetreuung der Wiener Kinderfreunde", "category": "initiative", "reccuring": "initiative" }, "geometry": { "type": "Point", "coordinates": [ 16.35963033, 48.17537281 ] } }
]
}
